College Name,Website,City,State,Data Analytics Only,Data Analytics degree/cert Offered,Data Science degree/cert Offered,Offers Certificate,Offers AS,Offer Data Science Course,COUNTY,LATITUDE,LONGITUDE
Mt. San Antonio College,https://catalog.mtsac.edu/programs/programsaz/computer-database-management-systems/big-data-analytics-degree/,Walnut,California,1,1,0,1,1,1,Los Angeles,34.0176,-117.8636
Santa Ana College,https://sac.curriqunet.com/catalog/alias/santaanacollegecatalog/iq/26227/26241/26402/26952,Santa Ana,California,1,1,0,1,0,0,Orange,33.75016,-117.857665
East Los Angeles College,https://programmap.elac.edu/academics/programs/d8c96244-5415-26c2-1f39-fe7b5aefac5e,Los Angeles,California,0,1,1,1,0,1,Los Angeles,33.973093,-118.247896
Bakersfield College,"https://bakersfield.elumenapp.com/catalog/2024-2025/program,data-analyst-apprenticeship-certificate-of-achievement-summer-2023#mainContent",Bakersfield,California,1,1,0,1,0,1,Kern,35.386611,-119.017063
American Rivers College,,Sacramento,California,0,0,0,0,0,0,Sacramento,38.5816,-121.4933
Santa Monica College,https://catalog.smc.edu/current/degrees-certificates-transfer/computer-science.php#css-id,Santa Monica,California,1,1,0,1,0,1,Los Angeles,34.017628,-118.490708
Pasadena City College,https://curriculum.pasadena.edu/academic-programs/computer-science/data-science-as-cert-achievement/#text,Pasadena,California,0,0,1,1,1,1,Los Angeles,34.146762,-118.139119
City College of San Francisco,https://www.ccsf.edu/degrees-certificates/data-science,San Francisco,California,0,1,1,1,1,1,San Francisco,37.775,-122.4183
Long Beach City College,https://lbcc-public.courseleaf.com/degrees-certificates/data-analytics/data-analytics-as/,Long Beach,California,1,1,0,1,1,0,Los Angeles,33.7705,-118.1885
Fresno City College,https://www.fresnocitycollege.edu/academics/guided-pathways/business-pathway/programs/data-analytics.html,Fresno,California,1,1,0,1,1,1,Fresno,36.841107,-119.800359
Saddleback College,https://saddleback.curriqunet.com/catalog/iq/15094/15834/18466/15145,Mission Viejo,California,1,1,0,1,0,1,Orange,33.6,-117.6711
Cerritos College,,Norwalk,California,0,0,0,0,0,0,Los Angeles,33.90564,-118.081767
Santa Rosa Junior College,https://cs.santarosa.edu/data,Santa Rosa,California,0,0,0,0,0,1,Sonoma,38.443123,-122.751722
El Camino College,https://www.elcamino.edu/news/el-camino-college-receives-grant-for-data-science-curriculum.php,Alondra Park,California,0,0,0,0,0,1,Los Angeles,33.885658,-118.326599
Riverside City Community College,https://rccd.curriqunet.com/catalog/alias/rcc-24-25/iq/918/943/1107,Riverside,California,0,1,1,1,1,1,Riverside,33.9924,-117.369421
Chaffey College,https://colss-prod.ec.chaffey.edu/Student/Courses/Search?subjects=CISPROG,Rancho Cucamonga,California,0,0,0,0,0,1,San Bernardino,34.133922,-117.599149
Palomar College,https://www.palomar.edu/csit/data-science/,San Diego,California,0,1,1,1,1,1,San Diego,32.71852,-117.159316
College of the Canyons,,Santa Clarita,California,0,0,0,0,0,0,Los Angeles,34.459742,-118.488955
Southwestern College,,Chula Vista,California,0,0,0,0,0,0,San Diego,32.64,-117.0833
San Diego Mesa College,,San Diego,California,0,0,0,0,0,0,San Diego,32.71852,-117.159316
Mt. San Jacinto College,,Mt. San Jacinto,California,0,0,0,0,0,0,Riverside,33.6768,-117.165337
Sacramento City College,https://scc.losrios.edu/academics/programs-and-majors/data-science-as-degree-map,Sacramento,California,0,1,1,1,1,1,Sacramento,38.5816,-121.4933
Rio Hondo College,https://pathways.riohondo.edu/course/dsci-100/,Whittier,California,0,0,0,0,0,1,Los Angeles,34.001119,-118.037139
Fullerton College,,Fullerton,California,0,0,0,0,0,0,Orange,33.8796,-117.8951
San Joaquin Delta College,,Stockton,California,0,0,0,0,0,0,San Joaquin,37.958,-121.2876
Los Angeles Pierce College,https://www.lapc.edu/sites/lapc.edu/files/2024-08/LAPC%20General%20Catalog%202024-2025_FINAL.pdf,Woodland Hills,California,0,0,0,0,0,1,Los Angeles,34.155652,-118.600019
Santiago Canyone College,"https://sccollege.edu/pathways/STEM/SitePages/Data-Science,-AS.aspx",Orange,California,0,0,1,0,1,1,Orange,33.7877,-117.8755
Sierra College,https://catalog.sierracollege.edu/departments/infotech/#dataas,Rocklin,California,1,1,0,1,1,0,Placer,38.791898,-121.243406
Orange Coast College,https://catalog.cccd.edu/orange-coast/course-descriptions/credit-courses/cis/,Costa Mesa,California,0,0,0,0,0,1,Orange,33.677711,-117.909623
Los Angeles Valley College,https://programmap.lavc.edu/academics/interest-clusters/fa0e4bcf-46df-4fc9-9644-d76f437c1560/programs/7fa8d9da-5d63-641d-3612-05f776b8d4fe,Los Angeles,California,1,1,0,1,0,1,Los Angeles,33.973093,-118.247896
Modesto Junior College,,Modesto,California,0,0,0,0,0,0,Stanislaus,37.674649,-121.011303
De Anza College,http://ecms.deanza.edu/outlineprintpublic.html?catalogID=13779,Cupertino,California,0,0,0,0,0,1,Santa Clara,37.317363,-122.038604
Los Angeles City College,https://programmap.lacitycollege.edu/academics/interest-clusters/51c3d91b-f44a-4091-ba30-5bfda01c5530/programs/8f77be31-e264-3afc-d02f-058eeebcf4dd,Los Angeles,California,1,1,0,1,0,0,Los Angeles,33.973093,-118.247896
Santa Barbara City College,https://degree-map.sbcc.edu/academics/interest-clusters/527f4c2b-5d31-4b4d-b0de-89c5bc052339/programs/28c01085-cac3-3533-34ba-86924aaf6480,Santa Barbara,California,0,0,1,1,1,1,Santa Barbara,34.419668,-119.70782
Diablo Valley College,"https://dvc.elumenapp.com/catalog/DVC2024-2025Catalog/course,comsc156#mainContent",San Ramon,California,0,0,0,0,0,1,Contra Costa,37.78,-121.976944
Victor Valley College,,Victorville,California,0,0,0,0,0,0,San Bernardino,34.503917,-117.319235
Glendale Community College,https://www.glendale.edu/home/showpublisheddocument/62073/638586393593930000,Glendale,California,0,0,0,0,0,1,Los Angeles,34.171606,-118.289892
Irvine Valley College,https://catalog.ivc.edu/preview_program.php?catoid=31&poid=7192&returnto=5367,Irvine,California,1,1,0,0,0,1,Orange,33.7357,-117.7672
Consumnes River College,https://crc.losrios.edu/2024-2025-official-catalog/programs-of-study/list-of-programs/computer-information-science,Sacramento,California,0,0,0,0,0,1,Sacramento,38.5816,-121.4933
MiraCosta College,https://catalog.miracosta.edu/disciplines/computerstudiesandinformationtechnology/#certificatestext,Oceanside,California,0,0,0,0,0,0,San Diego,33.1951,-117.3776
Moorpark College,https://catalog.vcccd.edu/moorpark/programs-courses/mathematics/data-science-coa/,Moorpark,California,0,0,1,1,0,1,Ventura,34.285556,-118.881111
Cypress College,https://programmap.cypresscollege.edu/academics/interest-clusters/11c2c501-4273-4582-8f62-97683327dd16/programs/54be6a43-cb4b-78e3-caab-1d2173bd0406,Cypress,California,1,1,0,1,0,0,Orange,33.818613,-118.038696
College of the Sequoias,https://catalog.cos.edu/course-descriptions/ssci/,Visalia,California,0,0,0,0,0,1,Tulare,36.311379,-119.306471
Foothill College,https://foothill.edu/business/data-analytics.html,Los Altos,California,1,1,0,1,0,1,Santa Clara,37.381432,-122.125754
Grossmont College,https://www.grossmont.edu/academics/programs/csis/datascience.php,El Cajon,California,0,0,1,1,0,0,San Diego,32.777726,-116.919055
San Diego Miramar College,,San Diego,California,0,0,0,0,0,0,San Diego,32.71852,-117.159316
Los Angeles Trade Technical College,,Los Angeles,California,0,0,0,0,0,0,Los Angeles,33.973093,-118.247896
San Bernadino Valley College,,San Bernadino,California,0,0,0,0,0,0,San Bernardino,34.0886,-117.313789
San Diego City College,,San Diego,California,0,0,0,0,0,0,San Diego,32.71852,-117.159316
Antelope Valley College,,Lancaster,California,0,0,0,0,0,0,Los Angeles,34.690888,-118.149129
Merced College,,Merced,California,0,0,0,0,0,0,Merced,37.300724,-120.461668
Allan Hancock College,,Santa Maria,California,0,0,0,0,0,0,Santa Barbara,34.954538,-120.43245
Chabot College,,Hayward,California,0,0,0,0,0,0,Alameda,37.6564,-122.0957
College of the Desert,,Palm Desert,California,0,0,0,0,0,0,Riverside,33.7611,-116.3249
Los Angeles Mission College,https://www.lamission.edu/academics/aos/data-science,Los Angeles,California,0,1,1,1,0,1,Los Angeles,33.973093,-118.247896
Cuesta College,,San Luis Obispo,California,0,0,0,0,0,0,San Luis Obispo,35.263453,-120.650933
Ventura College,,Ventura,California,0,0,0,0,0,0,Ventura,34.290531,-119.28882
Golden West College,https://www.goldenwestcollege.edu/Links/pdf/research/program-reviews/cs/Computer-Science_2023.pdf,Huntington Beach,California,0,0,0,0,0,0,Orange,33.7152,-118.0088
Butte College,,Oroville,California,0,0,0,0,0,0,Butte,39.532967,-121.578396
Norco College,https://www.norcocollege.edu/caps/mecsgd/datascience.html,Norco,California,0,1,1,1,1,1,Riverside,33.94,-117.553333
Citrus College,,Glendora,California,0,0,0,0,0,0,Los Angeles,34.128663,-117.855155
Laney College,https://laney.edu/data-science/,Oakland,California,0,0,1,1,1,1,Alameda,37.780595,-122.216587
Folsom Lake College,https://flc.losrios.edu/academics/programs-and-majors/computer-information-science,Folsom,California,0,0,1,1,0,0,Sacramento,38.687885,-121.140927
Moreno Valley College,https://mvc.edu/academics/programs/data-science.php,Moreno Valley,California,0,1,1,1,1,1,Riverside,33.8858,-117.2211
Cabrillo College,,Aptos,California,0,0,0,0,0,0,Santa Cruz,36.977222,-121.898333
West Los Angeles College,https://programmap.wlac.edu/academics/interest-clusters/3a04a056-d7c3-4308-b5a5-feacaad0e67e/programs/86c635cd-cdf6-2921-7b27-3f32f9ad61ea,Los Angeles,California,0,0,1,1,0,1,Los Angeles,33.973093,-118.247896
Coastline Community College,https://catalog.cccd.edu/coastline/pathways/technology/computer-information-systems/data-science-certificate-achievement/#requirementstext,Fountain Valley,California,0,1,1,1,1,1,Orange,33.710762,-117.952318
Los Angeles Harbor College,https://www.lahc.edu/academics/pathways/stem/science,Los Angeles,California,0,0,0,0,0,0,Los Angeles,33.973093,-118.247896
Skyline College,https://skylinecollege.edu/mathematics/datascience.php,San Bruno,California,0,0,0,0,0,1,San Mateo,37.624742,-122.429021
West Valley College,https://www.westvalley.edu/catalog/programs/data-science-associate-in-science-degree.html,Saratoga,California,0,0,1,0,1,1,Santa Clara,37.272871,-122.018238
Evergreen Valley College,https://catalog.evc.edu/search/?search=comsc+028,San Jose,California,0,0,0,0,0,1,Santa Clara,37.3894,-121.8868
College of San Mateo,https://san-mateo.preview.programmapper.com/academics/interest-clusters/31540623-e15a-4a3b-86a9-161c4e566af1/programs/f6e26cd4-49a3-f10f-6202-3261d1bc6811,San Mateo,California,1,1,0,1,0,1,San Mateo,37.572271,-122.320262
Clovis Community College,,Fresno,California,0,0,0,0,0,0,Fresno,36.841107,-119.800359
San Jose City College,https://sjcc.edu/dept/computer-information-systems/data-analytics.aspx,San Jose,California,1,1,0,1,0,1,Santa Clara,37.3894,-121.8868
Solano Community College,https://welcome.solano.edu/data-science/#,Fairfield,California,0,0,1,1,1,1,Solano,38.267084,-122.03565
Imperial Valley College,,Imperial,California,0,0,0,0,0,0,Imperial,32.846954,-115.572984
Ohlone College,,Fremont,California,0,0,0,0,0,0,Alameda,37.560493,-121.999935
Shasta College,,Redding,California,0,0,0,0,0,0,Shasta,40.560493,-122.411627
Hartnell College,,Salinas,California,0,0,0,0,0,0,Monterey,36.667693,-121.659589
Reedley College,,Reedley,California,0,0,0,0,0,0,Fresno,36.604406,-119.437785
Cuyamaca College,,El Cajon,California,0,0,0,0,0,0,San Diego,32.777726,-116.919055
Los Medanos College,,Pittsburgh,California,0,0,0,0,0,0,Pittsburg,38.006458,-121.862
Monterey Peninsula College,,Monterey,California,0,0,0,0,0,0,Monterey,36.595642,-121.8848
Las Positas College,https://laspositascollege.edu/catalog/current/cis/dataanalytics-ca.php,Livermore,California,1,1,0,1,0,0,Alameda,37.68299,-121.762983
Mission College,https://mission.elumenapp.com/catalog/24-25/program/data-analyst-associate-ca-2021sp#mainContent,Santa Clara,California,0,1,0,1,0,1,Santa Clara,37.34732,-121.954079
Oxnard College,,Oxnard,California,0,0,0,0,0,0,Ventura,34.214142,-119.174952
Merrit College,https://www.merritt.edu/wp-content/uploads/2021/06/r4_MC_Computer_Science_Advisory_Guide_210621.pdf,Oakland,California,0,0,0,0,0,0,Alameda,37.780595,-122.216587
Berkeley City College,,Berkeley,California,0,0,0,0,0,0,Alameda,37.8691,-122.2696
Gavilan College,,Gilroy,California,0,0,0,0,0,0,Santa Clara,37.016005,-121.57825
Contra Costa College,,San Pablo,California,0,0,0,0,0,0,Contra Costa,37.972374,-122.336929
College of Marin,,Kentfield,California,0,0,0,0,0,0,Marin,37.952222,-122.556111
Crafton Hills College,,Yucaipa,California,0,0,0,0,0,0,San Bernardino,34.028197,-117.048925
Canada College,,Redwood City,California,0,0,0,0,0,0,San Mateo,37.464661,-122.230406
Los Angeles Southwest College,,Los Angeles,California,0,0,0,0,0,0,Los Angeles,33.973093,-118.247896
Madera College,https://www.maderacollege.edu/academics/training-institute/ugotclass-online-training.html,Madera,California,0,0,0,0,0,0,Madera,36.9528,-119.8806
College of Alameda,https://alameda.edu/wp-content/uploads/2024/09/CIS.pdf,Alameda,California,1,1,0,1,0,0,Alameda,37.764783,-122.260516
Yuba College,,Marysville,California,0,0,0,0,0,0,Yuba,39.141653,-121.522467
Cerro Costo Community College,https://www.cerrocoso.edu/academics/programs/coa/data-analyst-i-certificate.html#courses,Ridgecrest,California,1,1,0,1,0,0,Kern,35.631376,-117.679733
Porterville College,,Porterville,California,0,0,0,0,0,0,Tulare,36.068636,-119.031549
Mendocino College,https://www.mendocino.edu/sites/default/files/2024-08/Final%20MC%20Catalog%202024-25%20web.pdf,Ukiah,California,0,0,0,0,0,1,Mendocino,39.151917,-123.200692
Compton College,https://www.compton.edu/academics/docs/2024-2025_Compton-College-Catalog.pdf,Compton,California,0,0,0,0,0,1,Los Angeles,33.890654,-118.239044
College of the Redwoods,,Eureka,California,0,0,0,0,0,0,Humboldt,40.776237,-124.155892
Napa Valley College,,Napa,California,0,0,0,0,0,0,Napa,38.328137,-122.305518
Lemoore College,,Lemoore,California,0,0,0,0,0,0,Kings,36.309535,-119.831017
Taft College,https://www.taftcollege.edu/committees/academic-senate/_files/2024/may-6_whole/Taft%20College_1page_%20NSFDataScienc%20Corps.pdf,Taft,California,0,0,0,0,0,0,Kern,35.148164,-119.455674
Lake Tahoe Community College,,South Lake Tahoe,California,0,0,0,0,0,0,El Dorado,38.916976,-119.986469
Woodland Community College,,Woodland,California,0,0,0,0,0,0,Yolo,38.674294,-121.77932
Coalinga College,,Coalinga,California,0,0,0,0,0,0,Fresno,36.162435,-120.348928
Palo Verde College,,Blythe,California,0,0,0,0,0,0,Riverside,33.605715,-114.597131
Barstow Community College,,Barstow,California,0,0,0,0,0,0,San Bernardino,34.89145,-117.038702
Columbia College,,Sonora,California,0,0,0,0,0,0,Tuolumne,37.995692,-120.338498
Calbright College,https://www.calbright.edu/programs/data-analysis,Online,,1,1,0,1,0,0,Sacramento,38.57158,-121.49503
Lassen College,,Susanville,California,0,0,0,0,0,0,Lassen,40.416389,-120.651944
College of the Siskiyous,,Weed,California,0,0,0,0,0,0,Siskiyou,41.439466,-122.384803
Feather River College,,Quincy,California,0,0,0,0,0,0,Plumas,39.940504,-120.928493
Copper Mountain College,,Joshua Tree,California,0,0,0,0,0,0,San Bernardino,34.150163,-116.303763
Bevill State Community College,,Jasper,Alabama,0,0,0,0,0,0,Walker,33.871672,-87.249144
Bishop State Community College,,Mobile,Alabama,0,0,0,0,0,0,Mobile,30.6959,-88.0434
Calhoun Community College,,Decatur,Alabama,0,0,0,0,0,0,Morgan,34.589599,-86.98868
Central Alabama Community College,,Alexander City,Alabama,0,0,0,0,0,0,Tallapoosa,32.941445,-85.951086
Chattahoochee Valley Community College,,Phenix City,Alabama,0,0,0,0,0,0,Russell,32.407816,-85.095082
Coastal Alabama Community College,,Bay Minette,Alabama,0,0,0,0,0,0,Baldwin,30.86354,-87.76444
Community College of the Air Force,,Montgomery,Alabama,0,0,0,0,0,0,Montgomery,32.3743,-86.3118
Enterprise State Community College,,Enterprise,Alabama,0,0,0,0,0,0,Coffee,31.340789,-85.842111
Gadsden State Community College,,Gadsden,Alabama,0,0,0,0,0,0,Etowah,33.997248,-86.010279
H. Councill Trenholm State Community College,,Montgomery,Alabama,0,0,0,0,0,0,Montgomery,32.3743,-86.3118
J.F. Drake State Community and Technical College,,Huntsville,Alabama,0,0,0,0,0,0,Madison,34.726866,-86.567318
J. F. Ingram State Technical College,,Deatsville,Alabama,0,0,0,0,0,0,Elmore,32.613405,-86.338211
Jefferson State Community College,,Birmingham,Alabama,0,0,0,0,0,0,Jefferson,33.519,-86.8014
Lawson State Community College,,Birmingham,Alabama,0,0,0,0,0,0,Jefferson,33.519,-86.8014
Lurleen B. Wallace Community College,,Andalusia,Alabama,0,0,0,0,0,0,Covington,31.297142,-86.490468
Marion Military Institute,,Marion,Alabama,0,0,0,0,0,0,Perry,32.646301,-87.331437
Northeast Alabama Community College,,Rainsville,Alabama,0,0,0,0,0,0,De Kalb,34.498884,-85.844605
Northwest–Shoals Community College,,Muscle Shoals,Alabama,0,0,0,0,0,0,Colbert,34.756136,-87.630443
Reid State Technical College,,Evergreen,Alabama,0,0,0,0,0,0,Conecuh,31.460338,-86.963935
Shelton State Community College,,Tuscaloosa,Alabama,0,0,0,0,0,0,Tuscaloosa,33.196891,-87.562666
Snead State Community College,,Boaz,Alabama,0,0,0,0,0,0,Marshall,34.173686,-86.148003
Southern Union State Community College,,Wadley,Alabama,0,0,0,0,0,0,Randolph,33.149192,-85.551344
Wallace Community College,,Dothan,Alabama,0,0,0,0,0,0,Houston,31.202888,-85.418036
Wallace Community College Selma,,Selma,Alabama,0,0,0,0,0,0,Dallas,32.419719,-87.024527
Wallace State Community College,https://www.wallacestate.edu/programs/academic-division/computer-science/index.html,Hanceville,Alabama,1,1,0,1,0,0,Cullman,34.051569,-86.784844
Iḷisaġvik College,https://catalog.ilisagvik.edu/information-technology/certificate/data-analysis-i,Utqiaġvik,Alaska,1,1,0,1,0,0,North Slope,71.323735,-156.682196
Kenai Peninsula College,,Soldotna,Alaska,0,0,0,0,0,0,Kenai Peninsula,60.481778,-151.13582
Kodiak College,,Kodiak,Alaska,0,0,0,0,0,0,Kodiak Island,57.781967,-152.500169
Matanuska–Susitna College,,Palmer,Alaska,0,0,0,0,0,0,Matanuska-Susitna,61.577768,-149.245057
Prince William Sound College,,Valdez,Alaska,0,0,0,0,0,0,Valdez Cordova,60.895044,-146.195628
UAF Community and Technical College,,Fairbanks,Alaska,0,0,0,0,0,0,Fairbanks North Star,64.840238,-147.710431
Bristol Bay Campus,,Dillingham,Alaska,0,0,0,0,0,0,Dillingham,59.059279,-158.973533
Chukchi Campus,,Kotzebue,Alaska,0,0,0,0,0,0,Northwest Arctic,66.846459,-162.126493
Interior Alaska Campus,,Fairbanks,Alaska,0,0,0,0,0,0,Fairbanks North Star,64.840238,-147.710431
Kuskokwim Campus,,Bethel,Alaska,0,0,0,0,0,0,Bethel,60.832389,-161.824053
UAS Sitka Campus,,Sitka,Alaska,0,0,0,0,0,0,Sitka,57.051436,-135.316569
UAS Ketchikan,,Ketchikan,Alaska,0,0,0,0,0,0,Ketchikan Gateway,55.372028,-131.683175
Arizona Western College,https://www.azwestern.edu/degrees-and-certificates/occupational-certificate/data-analytics-professional,Yuma,Arizona,1,1,0,1,0,0,Yuma,32.701507,-114.642362
Central Arizona College,,Coolidge,Arizona,0,0,0,0,0,0,Pinal,32.957399,-111.534378
Cochise College,,Sierra Vista,Arizona,0,0,0,0,0,0,Cochise,31.536467,-110.266565
Coconino County Community College,,Flagstaff,Arizona,0,0,0,0,0,0,Coconino,35.185911,-111.661979
Diné College,,Tsaile,Arizona,0,0,0,0,0,0,Apache,36.307075,-109.217627
Eastern Arizona College,,Thatcher,Arizona,0,0,0,0,0,0,Graham,32.819902,-109.730245
Gila Community College,,Globe,Arizona,0,0,0,0,0,0,Gila,33.402426,-110.789247
Chandler–Gilbert Community College,https://www.cgc.edu/degrees-certificates/data-analytics,Chandler,Arizona,1,1,0,1,1,0,Maricopa,33.330091,-111.863156
Estrella Mountain Community College,https://www.estrellamountain.edu/degrees-certificates/computer-and-information-technology/data-analytics-5884-ccl,Avondale,Arizona,1,1,0,1,0,0,Maricopa,33.432114,-112.343754
GateWay Community College,https://www.gatewaycc.edu/degrees-certificates/computer-and-information-technology/data-analytics-5884-ccl,Phoenix,Arizona,1,1,0,1,0,0,Maricopa,33.451,-112.0685
Glendale Community College,,Glendale,Arizona,0,0,0,0,0,0,Maricopa,33.531122,-112.176703
Mesa Community College,https://www.mesacc.edu/programs/data-analytics,Mesa,Arizona,1,1,0,1,1,0,Maricopa,33.43174,-111.846931
Paradise Valley Community College,https://www.paradisevalley.edu/degrees-certificates/computer-and-information-technology/data-analytics-5884-ccl,Phoenix,Arizona,1,1,0,1,0,0,Maricopa,33.451,-112.0685
Phoenix College,,Phoenix,Arizona,0,0,0,0,0,0,Maricopa,33.451,-112.0685
Rio Salado College,https://www.riosalado.edu/degrees-certificates/computer-and-information-technology/data-analytics-5884-ccl?__hstc=87788103.1c6ffc6d05a4970c1a62e1750af9f918.1732485913228.1732485913228.1732485913228.1&__hssc=87788103.1.1732485913228&__hsfp=832949540,Tempe,Arizona,1,1,0,1,0,0,Maricopa,33.4273,-111.9307
Scottsdale Community College,https://www.scottsdalecc.edu/degrees-certificates/data-analytics,Scottsdale,Arizona,1,1,0,1,1,0,Maricopa,33.521767,-111.904926
South Mountain Community College,,Phoenix,Arizona,0,0,0,0,0,0,Maricopa,33.451,-112.0685
Mohave Community College,,Bullhead City,Arizona,0,0,0,0,0,0,Mohave,35.1678,-114.543
Northland Pioneer College,,Holbrook,Arizona,0,0,0,0,0,0,Navajo,34.908451,-110.143412
Pima Community College,,Tucson,Arizona,0,0,0,0,0,0,Pima,32.213873,-110.969445
Tohono Oʼodham Community College,,Sells,Arizona,0,0,0,0,0,0,Pima,32.031572,-111.922207
Yavapai College,,Prescott,Arizona,0,0,0,0,0,0,Yavapai,34.629909,-113.022459
Borough of Manhattan Community College,https://www.bmcc.cuny.edu/academics/departments/math/data-science/,New York City,New York,0,0,1,0,1,1,New York,40.717455,-74.012247
Bronx Community College,,New York City,New York,0,0,0,0,0,0,Bronx,40.857516,-73.912929
Cayuga Community College,,Auburn,New York,0,0,0,0,0,0,Cayuga,42.929958,-76.562605
Clinton Community College,,Plattsburgh,New York,0,0,0,0,0,0,Clinton,44.692715,-73.465969
Columbia-Greene Community College,,Hudson,New York,0,0,0,0,0,0,Columbia,42.246978,-73.755248
SUNY Corning Community College,,Corning,New York,0,0,0,0,0,0,Steuben,42.138331,-77.047546
SUNY Dutchess Community College,https://www.sunydutchess.edu/academics/programs/computer-information-systems-programs/data-analysis.html,Poughkeepsie,New York,1,1,0,1,0,0,Dutchess,41.702082,-73.9218
Finger Lakes Community College,https://www.flcc.edu/pdf/syllabi/MAT165.pdf,Canandaigua,New York,0,0,0,0,0,1,Ontario,42.868866,-77.284561
Fulton-Montgomery Community College,,Johnstown,New York,0,0,0,0,0,0,Fulton,43.006923,-74.37149
Guttman Community College,,New York City,New York,0,0,0,0,0,0,New York,40.752914,-73.984062
Herkimer College,https://www.herkimer.edu/academics/programs-and-majors/program/75/competitive-analytics-a-a-s,Herkimer,New York,1,1,0,1,0,0,Herkimer,43.030696,-74.98757
Hostos Community College,,New York City,New York,0,0,0,0,0,0,Bronx,40.817422,-73.927207
Hudson Valley Community College,https://catalog.hvcc.edu/preview_program.php?catoid=12&poid=2017&hl=%22data+analytics%22&returnto=search,Troy,New York,1,1,0,1,0,0,Rensselaer,42.728748,-73.668263
Jamestown Community College,,Jamestown,New York,0,0,0,0,0,0,Chautauqua,42.092845,-79.243989
Jefferson Community College,,Watertown,New York,0,0,0,0,0,0,Jefferson,43.974258,-75.912212
Kingsborough Community College,,New York City,New York,0,0,0,0,0,0,Kings,40.578284,-73.935298
LaGuardia Community College,,New York City,New York,0,0,0,0,0,0,Queens,40.743805,-73.935064
Mohawk Valley Community College,https://catalog.mvcc.edu/current/programs/cert-data-analytics.php,Utica,New York,1,1,0,1,0,0,Oneida,43.087112,-75.231463
Monroe Community College,,Rochester,New York,0,0,0,0,0,0,Monroe,43.1683,-77.6026
Nassau Community College,,Garden City,New York,0,0,0,0,0,1,Nassau,40.72452,-73.648718
SUNY Niagara,,Niagara,New York,0,0,0,0,0,0,Niagara,43.146379,-78.877683
North Country Community College,,Saranac Lake,New York,0,0,0,0,0,0,Franklin,44.324331,-74.132951
Onondaga Community College,,Syracuse,New York,0,0,0,0,0,0,Onondaga,43.0459,-76.1528
Queensborough Community College,,New York City,New York,0,0,0,0,0,0,Queens,40.755417,-73.757401
Rockland Community College,,Suffern,New York,0,0,0,0,0,0,Rockland,41.117654,-74.124098
Schenectady County Community College,,Schenectady,New York,0,0,0,0,0,0,Schenectady,42.8155,-73.9395
Suffolk County Community College,,Selden,New York,0,0,0,0,0,0,Suffolk,40.869883,-73.044848
SUNY Adirondack,,Queensbury,New York,0,0,0,0,0,0,Warren,43.328983,-73.681846
SUNY Broome Community College,,Binghamton,New York,0,0,0,0,0,0,Broome,42.146307,-75.886517
SUNY Erie,,Buffalo,New York,0,0,0,0,0,0,Erie,42.896659,-78.884575
SUNY Orange,,Middletown,New York,0,0,0,0,0,0,Orange,41.457222,-74.412023
SUNY Sullivan,,Loch Sheldrake,New York,0,0,0,0,0,0,Sullivan,41.778899,-74.661406
SUNY Ulster,,Stone Ridge,New York,0,0,0,0,0,0,Ulster,41.861562,-74.169748
Tompkins Cortland Community College,,Dryden,New York,0,0,0,0,0,0,Tompkins,42.486118,-76.287224
Westchester Community College,,Valhalla,New York,0,0,0,0,0,0,Westchester,41.085559,-73.777596
Community College of Vermont,https://catalog.ccv.edu/preview_program.php?catoid=15&poid=740,Montpelier,Vermont,1,1,0,1,0,0,Washington,44.2574,-72.5698
Community College of Rhode Island,https://catalog.ccri.edu/programs-study/computer-studies-information-processing/data-analytics-certificate/,Warwick,Rhode Island,1,1,0,1,0,0,Kent,41.702601,-71.447591
Arkansas Northeastern College,,Blytheville,Arkansas,0,0,0,0,0,0,Mississippi,35.934482,-89.922497
Arkansas State University-Beebe,,Beebe,Arkansas,0,0,0,0,0,0,White,35.093743,-91.907449
Arkansas State University Mid-South,,West Memphis,Arkansas,0,0,0,0,0,0,Crittenden,35.148442,-90.17792
Arkansas State University–Mountain Home,,Mountain Home,Arkansas,0,0,0,0,0,0,Baxter,36.331153,-92.375337
Arkansas State University-Newport,,Newport,Arkansas,0,0,0,0,0,0,Jackson,35.598823,-91.257064
Arkansas State University Three Rivers,,Malvern,Arkansas,0,0,0,0,0,0,Hot Spring,34.355715,-92.829162
Black River Technical College,,Pocahontas,Arkansas,0,0,0,0,0,0,Randolph,36.282876,-90.996782
East Arkansas Community College,,Forrest City,Arkansas,0,0,0,0,0,0,Saint Francis,35.009129,-90.788572
National Park College,,Hot Springs,Arkansas,0,0,0,0,0,0,Garland,34.512349,-93.118897
North Arkansas College,https://www.northark.edu/academic-programs/data-science/as/,Harrison,Arkansas,0,1,1,0,1,1,Boone,36.241707,-93.106162
Northwest Arkansas Community College,https://www.nwacc.edu/academicdivisions/bcis/datascience.aspx,Bentonville,Arkansas,0,0,1,0,1,1,Benton,36.357703,-94.22242
Ozarka College,,Melbourne,Arkansas,0,0,0,0,0,0,Izard,36.059958,-91.905196
Pulaski Technical College,,North Little Rock,Arkansas,0,0,0,0,0,1,Pulaski,34.766974,-92.265376
South Arkansas Community College,,El Dorado,Arkansas,0,0,0,0,0,0,Union,33.20735,-92.662856
Southeast Arkansas College,,Pine Bluff,Arkansas,0,0,0,0,0,0,Jefferson,34.215405,-91.995812
Southern Arkansas University Tech,https://www.sautech.edu/programs-degrees/data-science/,East Camden,Arkansas,0,0,1,0,1,1,Calhoun,33.630275,-92.719507
Cossatot Community College,,De Queen,Arkansas,0,0,0,0,0,0,Sevier,34.044206,-94.338559
Phillips Community College,,Helena-West Helena,Arkansas,0,0,0,0,0,0,Phillips,34.545536,-90.616916
UACC Batesville,,Batesville,Arkansas,0,0,0,0,0,0,Independence,35.782614,-91.63519
University of Arkansas Hope-Texarkana,,Hope,Arkansas,0,0,0,0,0,0,Hempstead,33.656645,-93.590305
UACC Morrilton,,Morrilton,Arkansas,0,0,0,0,0,0,Conway,35.169227,-92.735436
University of Arkansas Rich Mountain,,Mena,Arkansas,0,0,0,0,0,0,Polk,34.581435,-94.220984
Aims Community College,https://www.aims.edu/degrees-certificates/computer-information-systems/certificates#data-analytics-certificate,Greeley,Colorado,1,1,0,1,0,0,Weld,40.413968,-104.704756
Arapahoe Community College,,Littleton,Colorado,0,0,0,0,0,1,Arapahoe,39.599426,-105.0044
Colorado Mountain College,,Glenwood Springs,Colorado,1,1,0,1,0,1,Garfield,39.529607,-107.325188
Colorado Northwestern Community College,,Rangely,Colorado,0,0,0,0,0,0,Rio Blanco,40.082844,-108.799148
Community College of Aurora,,Aurora,Colorado,0,0,0,0,0,0,Adams,39.737809,-104.815233
Community College of Denver,,Denver,Colorado,0,0,0,0,0,0,Denver,39.7507,-104.989
Front Range Community College,,Westminster,Colorado,0,0,0,0,0,0,Adams,39.854238,-105.037086
Lamar Community College,,Lamar,Colorado,0,0,0,0,0,0,Prowers,38.084136,-102.619195
Morgan Community College,,Fort Morgan,Colorado,0,0,0,0,0,0,Morgan,40.254084,-103.803119
Northeastern Junior College,,Sterling,Colorado,0,0,0,0,0,0,Logan,40.63062,-103.221183
Otero College,,La Junta,Colorado,0,0,0,0,0,0,Otero,37.991552,-103.549068
Pikes Peak State College,,Colorado Springs,Colorado,0,0,0,0,0,0,El Paso,38.8335,-104.8206
Pueblo Community College,,Pueblo,Colorado,0,0,0,0,0,0,Pueblo,38.287876,-104.584828
Red Rocks Community College,,Lakewood,Colorado,0,0,0,0,0,1,Jefferson,39.720252,-105.149974
Trinidad State College,,Trinidad,Colorado,0,0,0,0,0,0,Las Animas,37.175475,-104.500715
Connecticut State Community College Asnuntuck,,Enfield,Connecticut,0,0,0,0,0,0,Hartford,41.989016,-72.565218
Connecticut State Community College Capital,https://ctstate.edu/component/zoo/advanced-search/2352?Itemid=183,Hartford,Connecticut,0,0,1,1,1,1,Hartford,41.7636,-72.6855
Connecticut State Community College Gateway,https://ctstate.edu/component/zoo/advanced-search/2352?Itemid=183,New Haven,Connecticut,0,1,1,0,1,1,New Haven,41.308,-72.9286
Connecticut State Community College Housatonic in Bridgeport,https://ctstate.edu/component/zoo/advanced-search/2352?Itemid=183,Bridgeport,Connecticut,1,1,0,0,1,0,Fairfield,41.1669,-73.2052
Connecticut State Community College Manchester,,Manchester,Connecticut,0,0,0,0,0,0,Hartford,41.777732,-72.52444
Connecticut State Community College Middlesex,,Middlesex,Connecticut,0,0,0,0,0,0,Middlesex,41.538395,-72.611086
Connecticut State Community College Naugatuck Valley,https://ctstate.edu/component/zoo/advanced-search/2352?Itemid=183,Waterbury,Connecticut,1,1,0,1,1,0,New Haven,41.558,-73.0519
Connecticut State Community College Northwestern,https://ctstate.edu/component/zoo/advanced-search/2352?Itemid=183,Winsted,Connecticut,0,1,1,1,1,1,Litchfield,41.925214,-73.066341
Connecticut State Community College Norwalk,,Norwalk,Connecticut,0,0,0,0,0,0,Fairfield,41.12222,-73.435827
Connecticut State Community College Quinebaug Valley,,Danielson,Connecticut,0,0,0,0,0,0,Windham,41.798246,-71.880703
Connecticut State Community College Three Rivers,https://ctstate.edu/component/zoo/advanced-search/2352?Itemid=183,Norwich,Connecticut,0,1,1,0,1,1,New London,41.537055,-72.08494
Connecticut State Community College Tunxis,https://ctstate.edu/component/zoo/advanced-search/2352?Itemid=183,Farmington,Connecticut,0,0,1,1,1,1,Hartford,41.7323,-72.7917
Delaware Technical Community College,,Dover,Delaware,0,0,0,0,0,0,Kent,39.156639,-75.535983
Casper College,,Casper,Wyoming,0,0,0,0,0,0,Natrona,42.845763,-106.316571
Central Wyoming College,,Riverton,Wyoming,0,0,0,0,0,0,Fremont,43.045786,-108.411335
Eastern Wyoming College,,Torrington,Wyoming,0,0,0,0,0,0,Goshen,42.062377,-104.191662
Laramie Community College,https://catalog.lccc.wy.edu/preview_program.php?catoid=10&poid=2450&returnto=518,Cheyenne,Wyoming,1,1,0,0,1,0,Laramie,41.143719,-104.796234
Gillette College,,Gillette,Wyoming,0,0,0,0,0,0,Campbell,44.282009,-105.497442
Sheridan College,,Sheridan,Wyoming,0,0,0,0,0,0,Sheridan,44.78486,-106.964795
Northwest College,,Powell,Wyoming,0,0,0,0,0,0,Park,44.756077,-108.777322
Western Wyoming Community College,,Rock Springs,Wyoming,0,0,0,0,0,0,Sweetwater,41.605957,-109.230047
Broward College,https://catalog.broward.edu/programs-study/data-analytics-as/,Fort Lauderdale,Florida,1,1,0,1,1,0,Broward,26.121561,-80.128778
Chipola College,,Marianna,Florida,0,0,0,0,0,0,Jackson,30.758587,-85.229367
College of Central Florida,,Ocala,Florida,0,0,0,0,0,0,Marion,29.1981,-82.0974
The College of the Florida Keys,,Key West,Florida,0,0,0,0,0,0,Monroe,24.565313,-81.762179
Daytona State College,,Daytona Beach,Florida,0,0,0,0,0,0,Volusia,29.201168,-81.037071
Eastern Florida State College,,Cocoa,Florida,0,0,0,0,0,0,Brevard,28.367183,-80.746455
Florida Gateway College,,Lake City,Florida,0,0,0,0,0,0,Columbia,30.0949,-82.7117
Florida SouthWestern State College,,Fort Myers,Florida,0,0,0,0,0,0,Lee,26.620403,-81.8725
Florida State College at Jacksonville,https://www.fscj.edu/academics/programs/as/2157,Jacksonville,Florida,0,0,1,1,1,0,Duval,30.3163,-81.4175
Gulf Coast State College,,Panama City,Florida,0,0,0,0,0,0,Bay,30.160624,-85.649403
Hillsborough Community College,https://www.hccfl.edu/academics/subjects/information-technology/artificial-intelligence,Tampa,Florida,0,0,1,0,1,0,Hillsborough,27.9428,-82.4549
Indian River State College,,Fort Pierce,Florida,0,0,0,0,0,0,Saint Lucie,27.438233,-80.443963
Lake–Sumter State College,,Leesburg,Florida,0,0,0,0,0,0,Lake,28.807965,-81.885772
Miami Dade College,,Miami,Florida,0,0,0,0,0,0,Miami-dade,25.779,-80.1982
North Florida College,,Madison,Florida,0,0,0,0,0,0,Madison,30.480209,-83.406678
Northwest Florida State College,,Niceville,Florida,0,0,0,0,0,0,Okaloosa,30.495771,-86.41446
Palm Beach State College,,Lake Worth,Florida,0,0,0,0,0,0,Palm Beach,26.6155,-80.1469
Pasco–Hernando State College,,New Port Richey,Florida,0,0,0,0,0,0,Pasco,28.232574,-82.732721
Pensacola State College,,Pensacola,Florida,0,0,0,0,0,0,Escambia,30.422282,-87.224763
Polk State College,,Winter Haven,Florida,0,0,0,0,0,0,Polk,27.999296,-81.751507
St. Johns River State College,,Orange Park,Florida,0,0,0,0,0,1,Clay,30.1044,-81.7145
St. Petersburg College,https://www.spcollege.edu/future-students/degrees-training/technology/data-science,St. Petersburg,Florida,0,0,1,1,1,0,Pinellas,27.738476,-82.678108
Santa Fe College,https://www.sfcollege.edu/academics/programs/6555.html,Gainesville,Florida,1,1,0,1,0,0,Alachua,29.645029,-82.310046
Seminole State College of Florida,https://www.seminolestate.edu/catalog/programs/sci-datsci,Sanford,Florida,0,1,1,0,1,0,Seminole,28.801307,-81.285044
South Florida State College,,Avon Park,Florida,0,0,0,0,0,0,Highlands,27.600085,-81.501486
"State College of Florida, Manatee–Sarasota",,Bradenton,Florida,0,0,0,0,0,0,Manatee,27.502778,-82.513889
Tallahassee State College,https://catalog.tsc.fl.edu/preview_program.php?catoid=22&poid=2519&returnto=3119,Tallahassee,Florida,0,0,1,0,1,1,Leon,30.428563,-84.259337
Valencia College,,Orlando,Florida,0,0,0,0,0,0,Orange,28.539882,-81.372668
Albany Technical College,,Albany,Georgia,0,0,0,0,0,0,Dougherty,31.567783,-84.161923
Athens Technical College,,Athens,Georgia,0,0,0,0,0,0,Clarke,33.976097,-83.363174
Atlanta Technical College,,Atlanta,Georgia,0,0,0,0,0,0,Fulton,33.7564,-84.3918
Augusta Technical College,https://augustatech.smartcatalogiq.com/en/2024-2025/2024-2025-academic-catalog/programs-of-study/school-of-business-cyber-and-design/data-analytics-with-al-integration-technical-certificate-of-credit/,Augusta,Georgia,1,1,0,1,0,0,Richmond,33.460084,-81.972959
Central Georgia Technical College,,Warner Robins,Georgia,0,0,0,0,0,0,Houston,32.593365,-83.641578
Chattahoochee Technical College,,Marietta,Georgia,0,0,0,0,0,0,Cobb,33.9043,-84.468
Coastal Pines Technical College,,Waycross,Georgia,0,0,0,0,0,0,Ware,31.219686,-82.364512
Columbus Technical College,,Columbus,Georgia,0,0,0,0,0,0,Muscogee,32.473035,-84.979456
Georgia Northwestern Technical College,,Rome,Georgia,0,0,0,0,0,0,Floyd,34.250726,-85.146501
Georgia Piedmont Technical College,https://www.gptc.edu/programs/data-analytics-specialist/,Clarkston,Georgia,1,1,0,1,0,0,Dekalb,33.810107,-84.238825
Gwinnett Technical College,,Lawrenceville,Georgia,0,0,0,0,0,0,Gwinnett,33.9435,-83.9643
Lanier Technical College,https://laniertech.smartcatalogiq.com/en/2023-2024/catalog/programs-of-study/health-information-management-technology/data-analytics-specialist-certificate-program/,Gainesville,Georgia,1,1,0,1,0,0,Hall,34.307269,-83.825596
Moultrie Technical College,,Moultrie,Georgia,0,0,0,0,0,0,Colquitt,31.179244,-83.764089
North Georgia Technical College,,Clarkesville,Georgia,0,0,0,0,0,0,Habersham,34.644993,-83.524304
Oconee Fall Line Technical College,,Sandersville,Georgia,0,0,0,0,0,0,Washington,32.986972,-82.816934
Ogeechee Technical College,,Statesboro,Georgia,0,0,0,0,0,0,Bulloch,32.440841,-81.773956
Savannah Technical College,,Savannah,Georgia,0,0,0,0,0,0,Chatham,32.067631,-81.102394
South Georgia Technical College,,Americus,Georgia,0,0,0,0,0,0,Sumter,32.07077,-84.224729
Southeastern Technical College,,Vidalia,Georgia,0,0,0,0,0,0,Toombs,32.193408,-82.406724
Southern Crescent Technical College,,Griffin,Georgia,0,0,0,0,0,0,Spalding,33.2549,-84.272759
Southern Regional Technical College,,Thomasville,Georgia,0,0,0,0,0,0,Thomas,30.8665,-83.9233
West Georgia Technical College,,Douglasville,Georgia,0,0,0,0,0,0,Douglas,33.7494,-84.7459
Wiregrass Georgia Technical College,,Valdosta,Georgia,0,0,0,0,0,0,Lowndes,30.810578,-83.277166
Northeast Lakeview College,,Universal City,Texas,0,0,0,0,0,0,Bexar,29.551608,-98.306742
Northwest Vista College,,San Antonio,Texas,0,0,0,0,0,0,Bexar,29.468525,-98.526352
Palo Alto College,,San Antonio,Texas,0,0,0,0,0,0,Bexar,29.468525,-98.526352
San Antonio College,https://mysaccatalog.alamo.edu/search_advanced.php?cur_cat_oid=272&search_database=Search&search_db=Search&cpage=1&ecpage=1&ppage=1&spage=1&tpage=1&location=33&filter%5Bkeyword%5D=data+science&filter%5Bexact_match%5D=1,San Antonio,Texas,0,0,0,0,0,1,Bexar,29.468525,-98.526352
St. Philips College,,San Antonio,Texas,0,0,0,0,0,0,Bexar,29.468525,-98.526352
Alvin Community College,,Alvin,Texas,0,0,0,0,0,0,Brazoria,29.41195,-95.251535
Amarillo Community College,https://www.actx.edu/data-science/,Amarillo,Texas,0,0,0,0,0,0,Randall,35.166332,-101.886764
Angelina College,,Lufkin,Texas,0,0,1,0,1,0,Angelina,31.336004,-94.734185
Austin Community College District,https://www6.austincc.edu/cms/site/www/catalog/programmaps/programmap.php?ap=8937&yr=2025,Austin,Texas,0,0,0,0,0,0,Travis,30.2303,-97.7144
Blinn College,,Brenham,Texas,0,0,0,0,0,0,Washington,30.17736,-96.402769
Brazosport College,,Lake Jackson,Texas,0,0,0,0,0,0,Brazoria,29.039275,-95.440119
Central Texas College,,Killeen,Texas,0,0,0,0,0,0,Bell,31.117,-97.7261
Cisco College,https://www.cisco.edu/uploads/files/general/Official-Course-Catalog-Published-08.19.24-for-24-25.pdf,Cisco,Texas,0,0,1,0,1,0,Eastland,32.380043,-98.986507
Clarendon College,,Clarendon,Texas,0,0,0,0,0,0,Donley,34.952878,-100.895157
Coastal Bend College,,Beeville,Texas,0,0,0,0,0,0,Bee,28.422246,-97.761571
College of the Mainlaind,,Texas City,Texas,0,0,0,0,0,0,Galveston,29.396984,-94.920298
Collin College,,McKinney,Texas,0,0,0,0,0,0,Collin,33.162436,-96.638552
Dallas College,https://catalog.dallascollege.edu/preview_course_nopop.php?catoid=2&coid=3265,Dallas,Texas,0,0,0,0,0,1,Dallas,32.790439,-96.80439
Del Mar College,,Corpus Christi,Texas,0,0,0,0,0,0,Nueces,27.794086,-97.402994
El Paso Community College,https://www.epcc.edu/Academics/Catalog/program-map?programID=1055,El Paso,Texas,1,1,0,1,0,0,El Paso,31.758411,-106.478311
Frank Philips College,,Berger,Texas,0,0,0,0,0,0,Hutchinson,35.653948,-101.405607
Galveston College,,Galveston,Texas,0,0,0,0,0,0,Galveston,29.298272,-94.79297
Grayson College,,Deniston,Texas,0,0,0,0,0,0,Grayson,33.705097,-96.634104
Hill College,,Hillsboro,Texas,0,0,0,0,0,0,Hill,32.014942,-97.119791
Houston Community College,https://catalog.hccs.edu/preview_program.php?catoid=23&poid=9944&returnto=1561,Houston,Texas,0,1,1,1,1,1,Harris,29.7652,-95.3657
Howard College,,Big Spring,Texas,0,0,0,0,0,0,Howard,32.241767,-101.467517
Kilgore College,https://catalog.kilgore.edu/preview_program.php?catoid=6&poid=581&hl=%22data+analytics%22&returnto=search,Kilgore,Texas,0,0,0,0,0,0,Gregg,32.383557,-94.865271
Laredo College,,Laredo,Texas,0,0,0,0,0,0,Webb,27.515538,-99.498579
Lee College,,Baytown,Texas,0,0,0,0,0,0,Harris,29.746063,-94.965265
Lone Star College–CyFair,,Cypress,Texas,0,0,0,0,0,0,Harris,29.968889,-95.696944
Lone Star College–Kingwood,,Kingwood,Texas,0,0,0,0,0,0,Harris,30.0683,-95.2163
Lone Star College–Montgomery,,Conroe,Texas,0,0,0,0,0,0,Montgomery,30.312535,-95.452667
Lone Star College–Houston North,,Houston,Texas,0,0,0,0,0,0,Harris,29.7652,-95.3657
Lone Star College–North Harris,,Houston,Texas,0,0,0,0,0,0,Harris,29.7652,-95.3657
Lone Star College–Tomball,https://www.lonestar.edu/programs-of-study/Data-Analytics-AAS.htm,Tomball,Texas,1,1,0,1,1,0,Harris,30.073923,-95.62006
Lone Star College–University Park,https://www.lonestar.edu/programs-of-study/ai-machine-learning,Houston,Texas,0,1,1,1,1,0,Harris,29.7652,-95.3657
McLennan Community College,,Waco,Texas,0,0,0,0,0,0,Mclennan,31.552452,-97.139608
Midland College,,Midland,Texas,0,0,0,0,0,0,Midland,31.989636,-102.06261
Navarro College,,Corsicana,Texas,0,0,0,0,0,0,Navarro,32.0322,-96.3483
North Central Texas College,https://www.ntc.edu/academics-training/programs/all/associate-degree/data-analytics#courses,Gainesville,Texas,1,1,0,0,1,0,Cooke,33.625943,-97.103208
Northeast Texas Community College,,Mount Pleasant,Texas,0,0,0,0,0,0,Titus,33.173309,-94.969461
Odessa College,,Odessa,Texas,0,0,0,0,0,0,Ector,31.8465,-102.3663
Panola College,,Carthage,Texas,0,0,0,0,0,0,Panola,32.154379,-94.352721
Paris Junior College,,Paris,Texas,0,0,0,0,0,0,Lamar,33.658077,-95.537881
Ranger College,,Ranger,Texas,0,0,0,0,0,0,Eastland,32.46809,-98.674659
San Jacinto College,,Pasadena,Texas,0,0,0,0,0,0,Harris,29.692,-95.2005
South Plains College,,Levelland,Texas,0,0,0,0,0,0,Hockley,33.578778,-102.367591
South Texas College,,Weslaco,Texas,0,0,0,0,0,0,Hidalgo,26.169444,-97.988714
Southwest Texas Junior College,,Del Rio,Texas,0,0,0,0,0,0,Val Verde,29.373881,-100.891555
Tarrant County College,,Fort Worth,Texas,0,0,0,0,0,0,Tarrant,32.7469,-97.3268
Temple College,,Temple,Texas,0,0,0,0,0,0,Bell,31.089518,-97.334264
Texarkana College,,Texarkana,Texas,0,0,0,0,0,0,Bowie,33.407371,-94.118245
Texas State Technical College,,Many Locations,Texas,0,0,0,0,0,0,Williamson,30.55409,-97.573648
Trinity Valley Community College,,Athens,Texas,0,0,0,0,0,0,Henderson,32.193499,-95.84318
Tyler Junior College,,Tyler,Texas,0,0,0,0,0,0,Smith,32.325366,-95.292179
Vernon College,,Vernon,Texas,0,0,0,0,0,0,Wilbarger,34.149135,-99.30301
Victoria College,,Victoria,Texas,0,0,0,0,0,0,Victoria,28.808953,-96.999347
Weatherford College,,Weatherford,Texas,0,0,0,0,0,0,Parker,32.8435,-97.7047
Western Texas College,,Snyder,Texas,0,0,0,0,0,0,Scurry,32.715105,-100.907485
Wharton County Junior College,,Wharton,Texas,0,0,0,0,0,0,Wharton,29.320488,-96.085828
Hawaiʻi Community College,,Hilo,Hawaii,0,0,0,0,0,0,Hawaii,19.702522,-155.093921
Honolulu Community College,,Honolulu,Hawaii,0,0,0,0,0,1,Honolulu,21.3095,-157.863
Kapiʻolani Community College,,Honolulu,Hawaii,0,0,0,0,0,0,Honolulu,21.3095,-157.863
Kauaʻi Community College,,Lihue,Hawaii,0,0,0,0,0,0,Kauai,21.981618,-159.368258
Leeward Community College,,Pearl City,Hawaii,0,0,0,0,0,1,Honolulu,21.408393,-157.965164
University of Hawaiʻi Maui College,https://catalog.maui.hawaii.edu/applied-business-information-technology/data-science-co,Kahului,Hawaii,0,0,1,1,0,1,Maui,20.881388,-156.478327
Windward Community College,,Kaneohe,Hawaii,0,0,0,0,0,0,Honolulu,21.422819,-157.811543
Salt Lake Community College,,Salt Lake,Utah,0,0,0,0,0,0,Salt Lake,40.67205,-111.944606
Snow College,https://www.snow.edu/academics/science_math/math/syllabus.html?q=4337,Ephraim,Utah,0,0,0,0,0,1,Sanpete,39.359983,-111.582301
Utah State University Eastern,,Price,Utah,0,0,0,0,0,0,Carbon,39.602013,-110.808117
College of Southern Idaho,,Twin Falls,Idaho,0,0,0,0,0,0,Twin Falls,42.556495,-114.469265
College of Western Idaho,,Nampa,Idaho,0,0,0,0,0,0,Canyon,43.58342,-116.584818
College of Eastern Idaho,,Idaho Falls,Idaho,0,0,0,0,0,0,Bonneville,43.517679,-111.990626
North Idaho College,,Coeur d'Alene,Idaho,0,0,0,0,0,0,Kootenai,47.676021,-116.79753
Black Hawk College,,Moline,Illinois,0,0,0,0,0,0,Rock Island,41.490609,-90.497968
Carl Sandburg College,,Galesburg,Illinois,0,0,0,0,0,0,Knox,40.952138,-90.369807
Harold Washington College,,Chicago,Illinois,0,0,0,0,0,0,Cook,41.885847,-87.618123
Kennedy–King College,,Chicago,Illinois,0,0,0,0,0,0,Cook,41.885847,-87.618123
Malcolm X College,,Chicago,Illinois,0,0,0,0,0,0,Cook,41.885847,-87.618123
Olive–Harvey College,,Chicago,Illinois,0,0,0,0,0,0,Cook,41.885847,-87.618123
Richard J. Daley College,,Chicago,Illinois,0,0,0,0,0,0,Cook,41.885847,-87.618123
Truman College,,Chicago,Illinois,0,0,0,0,0,0,Cook,41.885847,-87.618123
Wilbur Wright College,,Chicago,Illinois,0,0,0,0,0,0,Cook,41.885847,-87.618123
College of DuPage,https://catalog.cod.edu/programs-study/computer-information-science/data-analytics-certificate/,Glen Ellyn,Illinois,1,1,0,1,0,1,Dupage,41.866112,-88.064774
College of Lake County,,Grayslake,Illinois,0,0,0,0,0,0,Lake,42.34848,-88.037789
Danville Area Community College,,Danville,Illinois,0,0,0,0,0,0,Vermilion,40.136976,-87.621737
Elgin Community College,,Elgin,Illinois,0,0,0,0,0,0,Kane,42.038356,-88.260631
Harper College,https://www.harpercollege.edu/catalog/current/courses/cis.php#CIS-245,Palatine,Illinois,0,0,0,0,0,1,Cook,42.1258,-88.0764
Heartland Community College,,Normal,Illinois,0,0,0,0,0,0,Mclean,40.512446,-88.988287
Highland Community College,,Freeport,Illinois,0,0,0,0,0,0,Stephenson,42.299148,-89.634521
Illinois Central College,,East Peoria,Illinois,0,0,0,0,0,0,Tazewell,40.673121,-89.55141
Frontier Community College,,Fairfield,Illinois,0,0,0,0,0,0,Wayne,38.378214,-88.359323
Lincoln Trail College,,Robinson,Illinois,0,0,0,0,0,0,Crawford,39.007034,-87.748352
Olney Central College,,Olney,Illinois,0,0,0,0,0,0,Richland,38.733389,-88.080936
Wabash Valley College,,Mount Carmel,Illinois,0,0,0,0,0,0,Wabash,38.414727,-87.791107
Illinois Valley Community College,,Oglesby,Illinois,0,0,0,0,0,0,La Salle,41.292768,-89.055341
John A. Logan College,,Carterville,Illinois,0,0,0,0,0,0,Williamson,37.774785,-89.097793
John Wood Community College,,Quincy,Illinois,0,0,0,0,0,0,Adams,39.930701,-91.376284
Joliet Junior College,https://jjc.edu/sites/default/files/users/user53181/STAT101%20Master%20Syllabus.pdf,Joliet,Illinois,0,0,0,0,0,1,Will,41.527154,-88.08241
Kankakee Community College,,Kankakee,Illinois,0,0,0,0,0,0,Kankakee,41.116582,-87.869607
Kaskaskia College,,Centralia,Illinois,0,0,0,0,0,0,Marion,38.524117,-89.136478
Kishwaukee College,,Malta,Illinois,0,0,0,0,0,0,Dekalb,41.918332,-88.868818
Lake Land College,,Mattoon,Illinois,0,0,0,0,0,0,Coles,39.480184,-88.376152
Lewis and Clark Community College,,Godfrey,Illinois,0,0,0,0,0,0,Madison,38.946035,-90.206024
Lincoln Land Community College,,Springfield,Illinois,0,0,0,0,0,0,Sangamon,39.80004,-89.649531
McHenry County College,,Crystal Lake,Illinois,0,0,0,0,0,0,Mchenry,42.266198,-88.321294
Moraine Valley Community College,,Palos Hills,Illinois,0,0,0,0,0,0,Cook,41.700389,-87.826276
Morton College,,Cicero,Illinois,0,0,0,0,0,0,Cook,41.845556,-87.753889
Oakton College,https://catalog.oakton.edu/course-descriptions/course-descriptions-discipline/csc/,Des Plaines,Illinois,0,0,0,0,0,1,Cook,42.046734,-87.885899
Parkland College,,Champaign,Illinois,0,0,0,0,0,0,Champaign,40.111017,-88.240747
Prairie State College,,Chicago Heights,Illinois,0,0,0,0,0,0,Cook,41.506202,-87.613209
Rend Lake College,,Ina,Illinois,0,0,0,0,0,0,Jefferson,38.152743,-88.889362
Richland Community College,,Decatur,Illinois,0,0,0,0,0,0,Macon,39.827137,-88.925984
Rock Valley College,,Rockford,Illinois,0,0,0,0,0,0,Winnebago,42.292233,-89.116118
Sauk Valley Community College,,Dixon,Illinois,0,0,0,0,0,0,Lee,41.847797,-89.489303
Shawnee Community College,,Ullin,Illinois,0,0,0,0,0,0,Pulaski,37.270385,-89.191137
South Suburban College,,South Holland,Illinois,0,0,0,0,0,0,Cook,41.597916,-87.593814
Southeastern Illinois College,,Harrisburg,Illinois,0,0,0,0,0,0,Saline,37.725661,-88.54404
Southwestern Illinois College,,Belleville,Illinois,0,0,0,0,0,0,Saint Clair,38.512677,-89.984693
Spoon River College,,Canton,Illinois,0,0,0,0,0,0,Fulton,40.560137,-90.024151
Triton College,,River Grove,Illinois,0,0,0,0,0,0,Cook,41.927886,-87.838707
Waubonsee Community College,,Sugar Grove,Illinois,0,0,0,0,0,0,Kane,41.774113,-88.439721
College of Menominee Nation,,Keshena,Wisconsin,0,0,0,0,0,0,Menominee,44.914635,-88.635686
Lac Courte Oreilles Ojibwa Community College,,Hayward,Wisconsin,0,0,0,0,0,0,Sawyer,46.001404,-91.397659
Blackhawk Technical College,,Janesville,Wisconsin,0,0,0,0,0,0,Rock,42.691542,-89.033124
Chippewa Valley Technical College,https://www.cvtc.edu/academics/programs/it-data-analyst,Eau Claire,Wisconsin,1,1,0,1,0,0,Eau Claire,44.783972,-91.487686
Fox Valley Technical College,https://www.fvtc.edu/courses/information-technology/software-development-web/10-156-3/it-data-specialist,Appleton,Wisconsin,1,1,0,0,1,0,Outagamie,44.277325,-88.397649
Gateway Technical College,https://www.gtc.edu/sites/default/files/files/curriculum-sheet/2024/10-156-3%20IT%20-%20AI%20Data%20Specialist%20Full-Time%202024-2025%20Curriculum%20Sheet_0.pdf,Kenosha,Wisconsin,0,1,1,1,1,0,Kenosha,42.605228,-87.829945
Lakeshore Technical College,,Cleveland,Wisconsin,0,0,0,0,0,0,Manitowoc,43.921732,-87.767314
Madison Area Technical College,https://madisoncollege.edu/academics/programs/data-analytics-specialist#curriculum,Madison,Wisconsin,0,1,1,1,1,0,Dane,43.073,-89.3817
Mid-State Technical College,,Wisconsin Rapids,Wisconsin,0,0,0,0,0,0,Wood,44.375803,-89.806229
Milwaukee Area Technical College,,Milwaukee,Wisconsin,0,0,0,0,0,0,Milwaukee,43.0343,-87.9151
Moraine Park Technical College,,Fond Du Lac,Wisconsin,0,0,0,0,0,0,Fond Du Lac,43.770446,-88.429149
Nicolet Area Technical College,,Rhinelander,Wisconsin,0,0,0,0,0,0,Oneida,45.646718,-89.409285
Northcentral Technical College,https://www.ntc.edu/academics-training/programs/all/associate-degree/data-analytics,Wausau,Wisconsin,1,1,0,1,1,0,Marathon,44.963433,-89.633955
Northeast Wisconsin Technical College,https://www.nwtc.edu/academics-and-training/data-analytics,Green Bay,Wisconsin,1,1,0,1,1,0,Brown,44.485313,-88.016868
Southwest Wisconsin Technical College,https://www.swtc.edu/academics/programs/business/data-analytics,Fennimore,Wisconsin,1,1,0,1,1,0,Grant,42.988558,-90.655009
Waukesha County Technical College,https://www.wctc.edu/WCTC/Academics/Program-List/IT-Data-and-Analytics-Specialist,Pewaukee,Wisconsin,1,1,1,1,1,0,Waukesha,43.078777,-88.272922
Western Technical College,https://www.westerntc.edu/node/23110/academic-programs/it-data-%26-analytics-specialist,La Crosse,Wisconsin,0,0,0,0,0,0,La Crosse,43.798938,-91.217494
Wisconsin Indianhead Technical College,,Rice Lake,Wisconsin,0,0,0,0,0,0,Barron,45.510466,-91.733544
Des Moines Area Community College,https://catalog.dmacc.edu/preview_program.php?catoid=26&poid=4487&returnto=2682#,Des Moines,Iowa,0,0,1,1,0,1,Polk,41.6005,-93.6088
Clinton Community College,,Clinton,Iowa,0,0,0,0,0,0,Clinton,41.851684,-90.207784
Muscatine Community College,https://catalog.eicc.edu/preview_program.php?catoid=30&poid=6501,Muscantine,Iowa,1,1,0,1,0,0,Muscatine,41.440326,-91.026932
Scott Community College,,Bettendorf,Iowa,0,0,0,0,0,0,Scott,41.550865,-90.494201
Hawkeye Community College,,Waterloo,Iowa,0,0,0,0,0,0,Black Hawk,42.477784,-92.366099
Indian Hills Community College,,Ottumwa,Iowa,0,0,0,0,0,0,Wapello,41.015099,-92.413428
Iowa Central Community College,,Fort Dodge,Iowa,0,0,0,0,0,0,Webster,42.508817,-94.180737
Iowa Lakes Community College,,Estherville,Iowa,0,0,0,0,0,0,Emmet,43.401709,-94.818001
Ellsworth Community College,,Iowa Falls,Iowa,0,0,0,0,0,0,Hardin,42.513756,-93.270943
Marshalltown Community College,,Marshalltown,Iowa,0,0,0,0,0,0,Marshall,42.040482,-92.91269
Iowa Western Community College,,Council Bluffs,Iowa,0,0,0,0,0,0,Pottawattamie,41.252954,-95.880992
Kirkwood Community College,,Cedar Rapids,Iowa,0,0,0,0,0,0,Linn,41.9743,-91.655382
North Iowa Area Community College,,Mason City,Iowa,0,0,0,0,0,0,Cerro Gordo,43.149869,-93.195379
Northeast Iowa Community College,https://catalog.nicc.edu/preview_program.php?catoid=15&poid=2065,Peosta,Iowa,1,1,0,1,0,0,Dubuque,42.443535,-90.809372
Northwest Iowa Community College,,Sheldon,Iowa,0,0,0,0,0,0,Obrien,43.180797,-95.840141
Southeastern Community College,,West Burlington,Iowa,0,0,0,0,0,0,Des Moines,40.832081,-91.179894
Southwestern Community College,,Creston,Iowa,0,0,0,0,0,0,Union,41.062384,-94.369151
Western Iowa Tech Community College,,Sioux City,Iowa,0,0,0,0,0,0,Woodbury,42.497223,-96.40292
Blue Ridge Community and Technical College,,Martinsburg,West Virginia,0,0,0,0,0,0,Berkeley,39.459959,-77.958915
BridgeValley Community and Technical College,,South Charleston,West Virginia,0,0,0,0,0,0,Fayette,38.180145,-81.327965
Eastern West Virginia Community and Technical College,,Moorefield,West Virginia,0,0,0,0,0,0,Hardy,39.056812,-78.97793
Mountwest Community and Technical College,,Huntington,West Virginia,0,0,0,0,0,0,Cabell,38.409726,-82.442348
New River Community and Technical College,,Beaver,West Virginia,0,0,0,0,0,0,Raleigh,37.751581,-81.073104
Pierpont Community and Technical College,,Fairmont,West Virginia,0,0,0,0,0,0,Marion,39.472677,-80.146041
Potomac State College of West Virginia University,,Keyser,West Virginia,0,0,0,0,0,0,Mineral,39.430406,-78.988667
Southern West Virginia Community and Technical College,,Logan,West Virginia,0,0,0,0,0,0,Logan,37.847488,-82.002092
West Virginia Northern Community College,,Wheeling,West Virginia,0,0,0,0,0,0,Ohio,40.072736,-80.685126
West Virginia University at Parkersburg,,Parkersburg,West Virginia,0,0,0,0,0,0,Wood,39.264433,-81.535412
Allen Community College,,Iola,Kansas,0,0,0,0,0,0,Allen,37.928244,-95.402146
Barton Community College,,Great Bend,Kansas,0,0,0,0,0,0,Barton,38.370937,-98.783103
Butler Community College,https://www.butlercc.edu/homepage/349/data-analytics,El Dorado,Kansas,0,1,0,1,0,1,Butler,37.822649,-96.854297
Cloud County Community College,,Concordia,Kansas,0,0,0,0,0,0,Cloud,39.559427,-97.662735
Coffeyville Community College,,Coffeyville,Kansas,0,0,0,0,0,0,Montgomery,37.044056,-95.632756
Colby Community College,,Colby,Kansas,0,0,0,0,0,0,Thomas,39.383038,-101.044169
Cowley College,,Arkansas City,Kansas,0,0,0,0,0,0,Cowley,37.067593,-97.035658
Dodge City Community College,,Dodge City,Kansas,0,0,0,0,0,0,Ford,37.756882,-100.024074
Donnelly College,https://campussuite-storage.s3.amazonaws.com/prod/738581/f9ead7f6-bb6f-11e6-bf0d-22000bd8490f/2841505/77ba4f6c-6acf-11ef-bf91-0a58a9feac02/file/2024-2025%20Catalog%20V2.pdf,Kansas City,Kansas,0,0,0,0,0,1,Wyandotte,39.115733,-94.627139
Fort Scott Community College,,Fort Scott,Kansas,0,0,0,0,0,0,Bourbon,37.834159,-94.704221
Garden City Community College,,Garden City,Kansas,0,0,0,0,0,0,Finney,37.97693,-100.862088
Highland Community College,,Highland,Kansas,0,0,0,0,0,0,Doniphan,39.860752,-95.258335
Hutchinson Community College,,Hutchinson,Kansas,0,0,0,0,0,0,Reno,38.054995,-97.931052
Independence Community College,,Independence,Kansas,0,0,0,0,0,0,Montgomery,37.229247,-95.716528
Johnson County Community College,https://catalog.jccc.edu/degreecertificates/datascience//data-analytics-certificate/,Overland Park,Kansas,1,1,0,1,0,1,Johnson,38.992488,-94.674769
Kansas City Kansas Community College,,Kansas City,Kansas,0,0,0,0,0,0,Wyandotte,39.115733,-94.627139
Labette Community College,,Parsons,Kansas,0,0,0,0,0,0,Labette,37.338888,-95.269288
Neosho County Community College,,Chanute,Kansas,0,0,0,0,0,0,Neosho,37.674928,-95.456962
Pratt Community College,,Pratt,Kansas,0,0,0,0,0,0,Pratt,37.650219,-98.73003
Seward County Community College,,Liberal,Kansas,0,0,0,0,0,0,Seward,37.043789,-100.92857
Ashland Community and Technical College,,Ashland,Kentucky,0,0,0,0,0,0,Boyd,38.443038,-82.702709
Big Sandy Community and Technical College,,Prestonsburg,Kentucky,0,0,0,0,0,0,Floyd,37.649462,-82.788135
Bluegrass Community and Technical College,,Lexington,Kentucky,0,0,0,0,0,0,Fayette,38.017394,-84.485423
Elizabethtown Community and Technical College,,Elizabethtown,Kentucky,0,0,0,0,0,0,Hardin,37.706973,-85.858977
Gateway Community and Technical College,,Florence,Kentucky,0,0,0,0,0,0,Boone,38.998889,-84.626667
Hazard Community and Technical College,,Hazard,Kentucky,0,0,0,0,0,0,Perry,37.252641,-83.199845
Henderson Community College,,Henderson,Kentucky,0,0,0,0,0,0,Henderson,37.836111,-87.59
Hopkinsville Community College,,Hopkinsville,Kentucky,0,0,0,0,0,0,Christian,36.862053,-87.485148
Jefferson Community and Technical College,,Louisville,Kentucky,0,0,0,0,0,0,Jefferson,38.2435,-85.7639
Madisonville Community College,,Madisonville,Kentucky,0,0,0,0,0,0,Hopkins,37.325551,-87.495326
Maysville Community and Technical College,,Maysville,Kentucky,0,0,0,0,0,0,Mason,38.619716,-83.758858
Owensboro Community and Technical College,,Owensboro,Kentucky,0,0,0,0,0,0,Daviess,37.751255,-87.155394
Somerset Community College,,Somerset,Kentucky,0,0,0,0,0,0,Pulaski,37.073853,-84.604362
Southcentral Kentucky Community and Technical College,,Bowling Green,Kentucky,0,0,0,0,0,0,Warren,37.007874,-86.455891
Southeast Kentucky Community and Technical College,,Cumberland,Kentucky,0,0,0,0,0,0,Harlan,36.971085,-82.977052
West Kentucky Community and Technical College,,Paducah,Kentucky,0,0,0,0,0,0,Mccracken,37.063377,-88.663204
"Ivy Tech Community College, Anderson Campus",,Anderson,Indiana,0,0,0,0,0,0,Madison,40.114577,-85.725305
"Ivy Tech Community College, Bloomington Campus",https://www.ivytech.edu/programs/all-academic-programs/school-of-information-technology/data-analytics/,Bloomington,Indiana,1,1,0,1,1,0,Monroe,39.140057,-86.508262
"Ivy Tech Community College, Columbus Campus",,Columbus,Indiana,0,0,0,0,0,0,Bartholomew,39.205507,-85.931745
"Ivy Tech Community College, Crown Point Campus",,Crown Point,Indiana,0,0,0,0,0,0,Lake,41.423571,-87.355586
"Ivy Tech Community College, East Chicago Campus",,East Chicago,Indiana,0,0,0,0,0,0,Lake,41.634893,-87.462734
"Ivy Tech Community College, Evansville Campus",,Evansville,Indiana,0,0,0,0,0,0,Vanderburgh,37.9746,-87.5674
"Ivy Tech Community College, Fort Wayne Campus",https://www.ivytech.edu/programs/all-academic-programs/school-of-information-technology/data-analytics/,Fort Wayne,Indiana,1,1,0,1,1,0,Allen,41.0716,-85.1367
"Ivy Tech Community College, Gary Campus",https://www.ivytech.edu/programs/all-academic-programs/school-of-information-technology/data-analytics/,Gary,Indiana,1,1,0,1,1,0,Lake,41.593333,-87.346389
"Ivy Tech Community College, Hamilton County Campus",https://www.ivytech.edu/programs/all-academic-programs/school-of-information-technology/data-analytics/,Noblesville,Indiana,1,1,0,0,1,0,Hamilton,40.056292,-86.016294
"Ivy Tech Community College, Indianapolis Campus",https://www.ivytech.edu/programs/all-academic-programs/school-of-information-technology/data-analytics/,Indianapolis,Indiana,1,1,0,1,1,0,Marion,39.775006,-86.109348
"Ivy Tech Community College, Kokomo Campus",,Kokomo,Indiana,0,0,0,0,0,0,Howard,40.49884,-86.145273
"Ivy Tech Community College, Lafayette Campus",https://www.ivytech.edu/programs/all-academic-programs/school-of-information-technology/data-analytics/,Lafayette,Indiana,1,1,0,1,1,0,Tippecanoe,40.417743,-86.888358
"Ivy Tech Community College, Lawrenceburg Campus",,Lawrenceburg,Indiana,0,0,0,0,0,0,Dearborn,39.140123,-84.865819
"Ivy Tech Community College, Marion Campus",,Marion,Indiana,0,0,0,0,0,0,Grant,40.574333,-85.674127
"Ivy Tech Community College, Munice Campus",,Munice,Indiana,0,0,0,0,0,0,Delaware,40.193431,-85.387893
"Ivy Tech Community College, Richmond Campus",,Richmond,Indiana,0,0,0,0,0,0,Wayne,39.83244,-84.893606
"Ivy Tech Community College, Sellersburg Campus",,Sellersburg,Indiana,0,0,0,0,0,0,Clark,38.390331,-85.763518
"Ivy Tech Community College, South Bend Campus",,South Bend,Indiana,0,0,0,0,0,0,St Joseph,41.672699,-86.253489
"Ivy Tech Community College, Terre Haute Campus",,Terre Haute,Indiana,0,0,0,0,0,0,Vigo,39.4666,-87.4138
"Ivy Tech Community College, Valparaiso Campus",,Valparaiso,Indiana,0,0,0,0,0,0,Porter,41.475661,-87.075866
Baton Rouge Community College,,Baton Rouge,Louisiana,0,0,0,0,0,0,East Baton Rouge,30.450731,-91.186954
Bossier Parish Community College,,Bossier City,Louisiana,0,0,0,0,0,0,Bossier,32.544924,-93.703826
Central Louisiana Technical Community College,,Alexandria,Louisiana,0,0,0,0,0,0,Rapides,31.288519,-92.463349
Delgado Community College,,New Orleans,Louisiana,0,0,0,0,0,0,Orleans,29.960484,-90.075301
L.E. Fletcher Technical Community College,,Schriever,Louisiana,0,0,0,0,0,0,Terrebonne,29.712276,-90.851341
Louisiana Delta Community College,,Monroe,Louisiana,0,0,0,0,0,0,Ouachita,32.528551,-92.106104
Northshore Technical Community College,,Hammond,Louisiana,0,0,0,0,0,0,Tangipahoa,30.51908,-90.487856
Northwest Louisiana Technical College,,Shreveport,Louisiana,0,0,0,0,0,0,Caddo,32.503743,-93.748696
Nunez Community College,,Chalmette,Louisiana,0,0,0,0,0,0,Saint Bernard,29.946611,-89.961137
River Parishes Community College,,Gonzales,Louisiana,0,0,0,0,0,0,Ascension,30.238333,-90.92
South Louisiana Community College,,Lafayette,Louisiana,0,0,0,0,0,0,Lafayette,30.236141,-92.008261
Sowela Technical Community College,,Lake Charles,Louisiana,0,0,0,0,0,0,Calcasieu,30.228453,-93.187966
Central Maine Community College,,Auburn,Maine,0,0,0,0,0,0,Androscoggin,44.094785,-70.238978
Eastern Maine Community College,,Bangor,Maine,0,0,0,0,0,0,Penobscot,44.824199,-68.791839
Kennebec Valley Community College,,Fairfield,Maine,0,0,0,0,0,0,Somerset,44.609639,-69.63321
Northern Maine Community College,,Presque Isle,Maine,0,0,0,0,0,0,Aroostook,46.684151,-68.01179
Southern Maine Community College,,South Portland,Maine,0,0,0,0,0,0,Cumberland,43.631847,-70.270878
Washington County Community College,,Calais,Maine,0,0,0,0,0,0,Washington,45.171478,-67.26408
York County Community College,,Wells,Maine,0,0,0,0,0,0,York,43.314352,-70.596883
Berkshire Community College,,Pittsfield,Massachusetts,0,0,0,0,0,0,Berkshire,42.453086,-73.247088
Bristol Community College,,Fall River,Massachusetts,0,0,0,0,0,0,Bristol,41.718221,-71.139991
Bunker Hill Community College,https://www.bhcc.edu/cit/dataanalyticsprograms/,Boston,Massachusetts,1,1,0,1,1,0,Suffolk,42.357603,-71.068432
Cape Cod Community College,https://live-capecod.cleancatalog.io/mathematics/associate-in-arts/data-science-concentration,Barnstable,Massachusetts,0,0,1,0,1,1,Barnstable,41.698289,-70.300067
Greenfield Community College,,Greenfield,Massachusetts,0,0,0,0,0,0,Franklin,42.601222,-72.601847
Holyoke Community College,https://catalog.hcc.edu/preview_course_nopop.php?catoid=11&coid=10737,Holyoke,Massachusetts,0,0,0,0,0,1,Hampden,42.202007,-72.626193
Massachusetts Bay Community College,,Wellesley,Massachusetts,0,0,0,0,0,0,Norfolk,42.2986,-71.3016
Massasoit Community College,https://massasoit.edu/program/computer-science-transfer-data-science/,Brockton,Massachusetts,0,0,1,0,1,1,Plymouth,42.08,-71.0377
Middlesex Community College,,Lowell,Massachusetts,0,0,0,0,0,0,Middlesex,42.656035,-71.305078
Mount Wachusett Community College,https://mwcc.edu/academics/certificate/data-analysis/,Gardner,Massachusetts,1,1,0,1,0,0,Worcester,42.57405,-71.9898
North Shore Community College,,Danvers,Massachusetts,0,0,0,0,0,0,Essex,42.569402,-70.942461
Northern Essex Community College,,Haverhill,Massachusetts,0,0,0,0,0,0,Essex,42.785605,-71.072057
Quinsigamond Community College,https://www.qcc.edu/computer-and-information-technology/computer-information-systems-data-science-certificate,Worcester,Massachusetts,0,0,1,1,0,0,Worcester,42.2621,-71.8034
Roxbury Community College,,Boston,Massachusetts,0,0,0,0,0,0,Suffolk,42.357603,-71.068432
Springfield Technical Community College,,Springfield,Massachusetts,0,0,0,0,0,0,Hampden,42.106,-72.5977
Bates Technical College,https://www.batestech.edu/programs/software/,Tacoma,Washington,1,1,0,0,1,0,Pierce,47.2764,-122.7583
Bellevue College,https://www.bellevuecollege.edu/academics/undergraduate-programs/data-coordinator-certificate-of-accomplishment/,Bellevue,Washington,1,1,0,1,1,0,King,47.619899,-122.207371
Bellingham Technical College,,Bellingham,Washington,0,0,0,0,0,0,Whatcom,48.748957,-122.488676
Big Bend Community College,,Moses Lake,Washington,0,0,0,0,0,0,Grant,47.137363,-119.289149
Cascadia College,https://www.cascadia.edu/academic-programs/science-technology-engineering-and-mathematics/hcde.aspx,Bothell,Washington,0,0,1,0,1,0,King,47.749692,-122.2159
Centralia College,,Centralia,Washington,0,0,0,0,0,0,Lewis,46.724635,-122.967068
Clark College,https://catalog.clark.edu/search/?search=data+science,Vancouver,Washington,0,0,0,0,0,0,Clark,45.64183,-122.68014
Clover Park Technical College,,Lakewood,Washington,0,0,0,0,0,0,Pierce,47.122905,-122.529326
Columbia Basin College,,Pasco,Washington,0,0,0,0,0,0,Franklin,46.249183,-119.104387
Spokane Community College,,Spokane,Washington,0,0,0,0,0,0,Spokane,47.666485,-117.436527
Spokane Falls Community College,,Spokane,Washington,0,0,0,0,0,0,Spokane,47.666485,-117.436527
Edmonds College,https://www.edmonds.edu/programs-and-degrees/areas-of-study/information-technology/computer-science/data-analytics/,Lynwood,Washington,1,1,0,1,0,0,Snohomish,47.816384,-122.32664
Everett Community College,,Everett,Washington,0,0,0,0,0,0,Snohomish,47.988431,-122.200571
Grays Harbor College,,Aberdeen,Washington,0,0,0,0,0,0,Grays Harbor,46.984293,-123.79629
Green River College,https://www.greenriver.edu/students/academics/degrees-programs/data-analytics-and-software-development.html,Auburn,Washington,1,1,0,0,1,1,King,47.316339,-122.270057
Highline College,https://catalog.highline.edu/preview_program.php?catoid=30&poid=8473&hl=%22data+science%22&returnto=search,Des Moines,Washington,0,0,1,0,1,1,King,47.388335,-122.301767
Lake Washington Institute of Technology,,Kirkland,Washington,0,0,0,0,0,0,King,47.678597,-122.189442
Lower Columbia College,,Longview,Washington,0,0,0,0,0,0,Cowlitz,46.151354,-122.963421
North Seattle College,https://www.seattlecolleges.edu/academics/academic-catalog,Seattle,Washington,0,0,0,0,0,1,King,47.611435,-122.330456
Olympic College,,Bremerton,Washington,0,0,0,0,0,0,Kitsap,47.601916,-122.629913
Peninsula College,,Port Angeles,Washington,0,0,0,0,0,0,Clallam,48.106489,-123.438442
Pierce College,https://www.pierce.ctc.edu/data-management-and-analytics,Puyallup,Washington,1,1,0,1,0,0,Pierce,47.199123,-122.315097
Renton Technical College,,Renton,Washington,0,0,0,0,0,0,King,47.464759,-122.207484
Seattle Central College,https://it.seattlecentral.edu/programs/data-analytics-and-database/information-technology-data-analytics-and-database-certificate,Seattle,Washington,1,1,0,1,1,1,King,47.611435,-122.330456
Shoreline Community College,https://www.shoreline.edu/programs/business-intelligence-data-analytics/business-intelligence-data-analytics.aspx,Shoreline,Washington,1,1,0,1,0,0,King,47.747453,-122.358627
Skagit Valley College,https://catalog.skagit.edu/preview_program.php?catoid=33&poid=8764&hl=%22data+science%22&returnto=search,Mount Vernon,Washington,1,1,0,0,1,1,Skagit,48.416427,-122.326548
South Puget Sound Community College,,Olympia,Washington,0,0,0,0,0,0,Thurston,47.012906,-122.876311
South Seattle College,,Seattle,Washington,0,0,0,0,0,0,King,47.611435,-122.330456
Tacoma Community College,,Tacoma,Washington,0,0,0,0,0,0,Pierce,47.2764,-122.7583
Walla Walla Community College,,Walla Walla,Washington,0,0,0,0,0,0,Walla Walla,46.061373,-118.331544
Wenatchee Valley College,,Wenatchee,Washington,0,0,0,0,0,0,Chelan,47.425269,-120.327345
Whatcom Community College,https://www.whatcom.edu/academics/areas-of-study/information-technology-computer-science/computer-information-systems/class-sequences,Bellingham,Washington,1,1,0,1,0,0,Whatcom,48.748957,-122.488676
Yakima Valley College,,Yakima,Washington,0,0,0,0,0,0,Yakima,46.606991,-120.477336
Allegany College of Maryland,https://www.allegany.edu/data-analytics/,Cumberland,Maryland,1,1,0,1,1,0,Allegany,39.6504,-78.7574
Anne Arundel Community College,,Arnold,Maryland,0,0,0,0,0,1,Anne Arundel,39.047587,-76.49406
Baltimore City Community College,,Baltimore,Maryland,0,0,0,0,0,0,Baltimore City,39.29463,-76.625203
Carroll Community College,https://www.carrollcc.edu/programs/degrees-credit-certificates/data-science-a-a/,Westminster,Maryland,0,0,1,1,1,1,Carroll,39.555654,-76.99404
Cecil College,https://catalog.cecil.edu/preview_program.php?catoid=6&poid=596&returnto=989,North East,Maryland,0,0,1,1,1,1,Cecil,39.604535,-75.953805
Chesapeake College,,Wye Mills,Maryland,0,0,0,0,0,0,Talbot,38.928114,-76.081366
College of Southern Maryland,https://www.csmd.edu/programs-courses/program-finder/data-science.html,La Plata,Maryland,0,0,1,1,1,1,Charles,38.525673,-76.986498
Community College of Baltimore County,https://catalog.ccbcmd.edu/preview_program.php?catoid=47&poid=27508,Rossville,Maryland,0,0,1,0,1,1,Baltimore,39.354541,-76.481758
Frederick Community College,https://myfcc.frederick.edu/FCC/media/ProgramsOfStudy/2019-2020%20Pathways/Data_Science_AOC_Pathway_2019.pdf,Frederick,Maryland,0,0,1,0,1,1,Frederick,39.408235,-77.400875
Garrett College,,McHenry,Maryland,0,0,0,0,0,0,Garrett,39.560734,-79.342756
Hagerstown Community College,,Hagerstown,Maryland,0,0,0,0,0,0,Washington,39.632022,-77.737215
Harford Community College,https://www.harford.edu/academics/credit-programs/programs/data-science.php,Bel Air,Maryland,0,0,1,1,1,1,Harford,39.539367,-76.356431
Howard Community College,https://howardcc.smartcatalogiq.com/2024-2025/catalog/programs-by-division/health-science-and-technology/data-business-analytics-certificate-career/,Columbia,Maryland,1,1,0,1,0,0,Howard,39.214103,-76.878807
Montgomery College,https://www.montgomerycollege.edu/academics/programs/data-science/index.html,Germantown,Maryland,0,0,1,1,1,1,Montgomery,39.17039,-77.269935
Prince George's Community College,https://www.pgcc.edu/programs-courses/program-finder/data-science-and-analysis-aas/,Largo,Maryland,0,1,1,1,1,0,Prince George's,38.889579,-76.825042
Wor–Wic Community College,,Salisbury,Maryland,0,0,0,0,0,0,Wicomico,38.362996,-75.592238
Alpena Community College,,Alpena,Michigan,0,0,0,0,0,0,Alpena,45.079018,-83.4602
Bay de Noc Community College,,Escanaba,Michigan,0,0,0,0,0,0,Delta,45.76587,-87.088985
Bay Mills Community College,,Brimley,Michigan,0,0,0,0,0,0,Chippewa,46.411117,-84.563841
Delta College,https://www.delta.edu/programs/current/sciences-and-engineering/data-science/data-science/certificate/index.html,University Center,Michigan,0,0,1,1,0,1,Bay,43.5608,-83.9899
Glen Oaks Community College,,Centreville,Michigan,0,0,0,0,0,0,Saint Joseph,41.921685,-85.496299
Gogebic Community College,,Ironwood,Michigan,0,0,0,0,0,0,Gogebic,46.463793,-90.158844
Grand Rapids Community College,https://www.grcc.edu/programs/data-science-certificate,Grand Rapids,Michigan,0,0,1,1,0,1,Kent,42.9704,-85.6738
Henry Ford College,,Dearborn,Michigan,0,0,0,0,0,0,Wayne,42.305295,-83.160488
Jackson College,,Jackson,Michigan,0,0,0,0,0,0,Jackson,42.254522,-84.387476
Kalamazoo Valley Community College,,Kalamazoo,Michigan,0,0,0,0,0,0,Kalamazoo,42.273565,-85.545653
Kellogg Community College,,Battle Creek,Michigan,0,0,0,0,0,0,Calhoun,42.3053,-85.1389
Kirtland Community College,,Grayling,Michigan,0,0,0,0,0,0,Crawford,44.670959,-84.691321
Lake Michigan College,,Benton Harbor,Michigan,0,0,0,0,0,0,Berrien,42.108594,-86.423417
Lansing Community College,,Lansing,Michigan,0,0,0,0,0,1,Ingham,42.7323,-84.556
Macomb Community College,https://ecatalog.macomb.edu/preview_program.php?catoid=88&poid=11019&hl=%22data+analytics%22&returnto=search,Warren,Michigan,1,1,0,1,0,0,Macomb,42.5159,-82.9824
Mid Michigan Community College,,Harrison,Michigan,0,0,0,0,0,0,Clare,44.028478,-84.77289
Monroe County Community College,https://www.monroeccc.edu/programs/data-analytics,Monroe,Michigan,1,1,0,0,1,0,Monroe,41.92751,-83.404848
Montcalm Community College,,Sidney,Michigan,0,0,0,0,0,0,Montcalm,43.23579,-85.120671
Mott Community College,https://www.mcc.edu/degree-pathway/CDAN.shtml,Flint,Michigan,1,1,0,0,1,0,Genesee,43.0233,-83.6856
Muskegon Community College,,Muskegon,Michigan,0,0,0,0,0,0,Muskegon,43.232589,-86.249191
North Central Michigan College,,Petoskey,Michigan,0,0,0,0,0,0,Emmet,45.361268,-84.940263
Northwestern Michigan College,,Traverse City,Michigan,0,0,0,0,0,0,Grand Traverse,44.74365,-85.618869
Oakland Community College,https://www.oaklandcc.edu/programs/cis/data-science,Auburn Hills,Michigan,0,0,1,1,0,0,Oakland,42.6875,-83.234167
St. Clair County Community College,,Port Huron,Michigan,0,0,0,0,0,0,Saint Clair,42.995843,-82.459938
Schoolcraft College,,Livonia,Michigan,0,0,0,0,0,0,Wayne,42.361503,-83.36494
Southwestern Michigan College,,Dowagiac,Michigan,0,0,0,0,0,0,Cass,41.990965,-86.116766
Washtenaw Community College,,Ann Arbor,Michigan,0,0,0,0,0,0,Washtenaw,42.279379,-83.783998
Wayne County Community College District,,Detroit,Michigan,0,0,0,0,0,0,Wayne,42.347429,-83.060398
West Shore Community College,,Scottville,Michigan,0,0,0,0,0,0,Mason,43.976692,-86.315615
Coahoma Community College,,Clarksdale,Mississippi,0,0,0,0,0,0,Coahoma,34.204984,-90.577755
Copiah–Lincoln Community College,,Wesson,Mississippi,0,0,0,0,0,0,Copiah,31.690055,-90.413106
East Central Community College,,Decatur,Mississippi,0,0,0,0,0,0,Newton,32.435798,-89.116832
East Mississippi Community College,,Scooba,Mississippi,0,0,0,0,0,0,Kemper,32.840197,-88.488272
Hinds Community College,,Raymond,Mississippi,0,0,0,0,0,0,Hinds,32.23922,-90.424088
Holmes Community College,,Goodman,Mississippi,0,0,0,0,0,0,Holmes,32.972133,-89.982145
Itawamba Community College,,Fulton,Mississippi,0,0,0,0,0,0,Itawamba,34.274543,-88.379262
Jones County Junior College,,Ellisville,Mississippi,0,0,0,0,0,0,Jones,31.579663,-89.223073
Meridian Community College,,Meridian,Mississippi,0,0,0,0,0,0,Lauderdale,32.357441,-88.655973
Mississippi Delta Community College,,Moorhead,Mississippi,0,0,0,0,0,0,Sunflower,33.478325,-90.51425
Mississippi Gulf Coast Community College,https://mgccc.edu/programs/schools/engineering-mathematics-data-science-it/ai-and-data-technology/,Perkinston,Mississippi,0,0,1,1,1,0,Stone,30.76686,-89.139985
Northeast Mississippi Community College,,Booneville,Mississippi,0,0,0,0,0,0,Prentiss,34.669431,-88.544299
Northwest Mississippi Community College,,Senatobia,Mississippi,0,0,0,0,0,0,Tate,34.632306,-89.885501
Pearl River Community College,,Poplarville,Mississippi,0,0,0,0,0,0,Pearl River,30.852362,-89.564751
Southwest Mississippi Community College,,Summit,Mississippi,0,0,0,0,0,0,Pike,31.29752,-90.465427
Crowder College,,Neosho,Missouri,0,0,0,0,0,0,Newton,36.870634,-94.386218
East Central College,,Union,Missouri,0,0,0,0,0,0,Franklin,38.445629,-91.020596
Jefferson College,,Hillsboro,Missouri,0,0,0,0,0,0,Jefferson,38.258582,-90.578196
Metropolitan Community College,,Kansas City,Missouri,0,0,0,0,0,0,Jackson,39.10005,-94.601849
Mineral Area College,,Park Hills,Missouri,0,0,0,0,0,0,Saint Francois,37.85555,-90.52735
Missouri State University–West Plains,https://wp.missouristate.edu/Catalog/degree-technology-cert-data-analytics.htm,West Plains,Missouri,1,1,0,1,0,0,Howell,36.728418,-91.871681
Moberly Area Community College,,Moberly,Missouri,0,0,0,0,0,0,Randolph,39.420239,-92.435793
North Central Missouri College,,Trenton,Missouri,0,0,0,0,0,0,Grundy,40.082335,-93.608634
Ozarks Technical Community College,,Springfield,Missouri,0,0,0,0,0,0,Greene,37.2152,-93.295
St. Charles Community College,https://catalog.stchas.edu/preview_program.php?catoid=4&poid=404&hl=%22data+analytics%22&returnto=search,Cottleville,Missouri,1,1,0,0,1,0,Saint Charles,38.746111,-90.653889
St. Louis Community College,,St. Louis,Missouri,0,0,0,0,0,0,St. Louis,38.629051,-90.278796
State Fair Community College,,Sedalia,Missouri,0,0,0,0,0,0,Pettis,38.696076,-93.232268
State Technical College of Missouri,,Osage County,Missouri,0,0,0,0,0,0,Osage,38.467548,-91.814313
Three Rivers College,,Poplar Bluff,Missouri,0,0,0,0,0,0,Butler,36.766235,-90.416647
Blue Ridge Community College,,Weyers Cave,Virginia,0,0,0,0,0,0,Augusta,38.293145,-78.923454
Central Virginia Community College,,Lynchburg,Virginia,0,0,0,0,0,0,Lynchburg City,37.386228,-79.171464
Mountain Gateway Community College,,Clifton Forge,Virginia,0,0,0,0,0,0,Alleghany,37.820342,-79.805423
Danville Community College,,Danville,Virginia,0,0,0,0,0,0,Danville City,36.621789,-79.412441
Eastern Shore Community College,,Melfa,Virginia,0,0,0,0,0,0,Accomack,37.6407,-75.745355
Germanna Community College,,Locust Grove,Virginia,0,0,0,0,0,0,Orange,38.335202,-77.770874
J. Sargeant Reynolds Community College,,Richmond,Virginia,0,0,0,0,0,0,Henrico,37.582473,-77.519657
Brightpoint Community College,,Chester,Virginia,0,0,0,0,0,0,Chesterfield,37.342934,-77.41557
Laurel Ridge Community College,https://laurelridge.edu/degree/science-computational-and-data-science-major/,Middletown,Virginia,0,0,1,1,1,0,Frederick,39.036676,-78.281455
Mountain Empire Community College,,Big Stone Gap,Virginia,0,0,0,0,0,0,Wise,36.858073,-82.762727
New River Community College,,Dublin,Virginia,0,0,0,0,0,0,Pulaski,37.098879,-80.669696
Northern Virginia Community College,https://www.nvcc.edu/academics/programs/data-analytics.html,Annandale,Virginia,1,1,0,1,0,0,Fairfax,38.830699,-77.214245
Patrick & Henry Community College,,Martinsville,Virginia,0,0,0,0,0,0,Martinsville City,36.687067,-79.869136
Paul D. Camp Community College,,Franklin,Virginia,0,0,0,0,0,0,Franklin City,36.678625,-76.939108
Piedmont Virginia Community College,,Charlottesville,Virginia,0,0,0,0,0,0,Charlottesville City,37.9962,-78.4782
Rappahannock Community College,,Glenns,Virginia,0,0,0,0,0,0,Gloucester,37.564747,-76.624482
Southside Virginia Community College,,Alberta,Virginia,0,0,0,0,0,0,Brunswick,36.880609,-77.905518
Southwest Virginia Community College,,Cedar Bluff,Virginia,0,0,0,0,0,0,Tazewell,37.079076,-81.766788
Virginia Peninsula Community College,,Hampton,Virginia,0,0,0,0,0,0,Hampton City,37.0065,-76.413
Tidewater Community College,,Virginia Beach,Virginia,0,0,0,0,0,0,Virginia Beach City,36.8527,-75.9783
Virginia Highlands Community College,,Abingdon,Virginia,0,0,0,0,0,0,Washington,36.691644,-82.019989
Virginia Western Community College,,Roanoke,Virginia,0,0,0,0,0,0,Roanoke City,37.2708,-79.9416
Wytheville Community College,,Wytheville,Virginia,0,0,0,0,0,0,Wythe,36.940669,-81.094082
Aaniiih Nakoda College,,Harlem,Montana,0,0,0,0,0,0,Blaine,48.539802,-108.769253
Bitterroot College of the University of Montana,,Hamilton,Montana,0,0,0,0,0,0,Ravalli,46.23953,-114.167869
Blackfeet Community College,,Browning,Montana,0,0,0,0,0,0,Glacier,48.54926,-113.019697
Chief Dull Knife College,,Lame Deer,Montana,0,0,0,0,0,0,Rosebud,45.603167,-106.565424
City College at Montana State University Billings,,Billings,Montana,0,0,0,0,0,0,Yellowstone,45.774489,-108.500452
Dawson Community College,,Glendive,Montana,0,0,0,0,0,0,Dawson,47.100813,-104.728716
Flathead Valley Community College,,Kalispell,Montana,0,0,0,0,0,0,Flathead,48.220939,-114.289163
Fort Peck Community College,,Poplar,Montana,0,0,0,0,0,0,Roosevelt,48.130713,-105.187021
Gallatin College Montana State University,,Bozeman,Montana,0,0,0,0,0,0,Gallatin,45.669269,-111.043057
Great Falls College Montana State University,,Great Falls,Montana,0,0,0,0,0,0,Cascade,47.509812,-111.273397
Helena College University of Montana,,Helena,Montana,0,0,0,0,0,0,Lewis And Clark,46.613066,-112.021283
Little Big Horn College,,Crow Agency,Montana,0,0,0,0,0,0,Big Horn,45.629594,-107.497251
Miles Community College,,Miles City,Montana,0,0,0,0,0,0,Custer,46.407459,-105.833193
Missoula College University of Montana,,Missoula,Montana,0,0,0,0,0,0,Missoula,46.856274,-114.025207
Montana Technological University,,Butte,Montana,0,0,0,0,0,0,Silver Bow,45.991579,-112.517807
Salish Kootenai College,,Pablo,Montana,0,0,0,0,0,0,Lake,47.600278,-114.118056
Stone Child College,,Box Elder,Montana,0,0,0,0,0,0,Hill,48.284066,-109.820548
Chattanooga State Community College,https://www.utc.edu/sites/default/files/static-assets/advisement/advising-resources/tn-transfer-pathways/2019-2020-ttp-chatt-state-to-utc/ttp-cecs-cpsc-data-science-as-bs-2019.pdf,Chattanooga,Tennessee,0,0,0,0,0,0,Hamilton,35.0455,-85.3081
Cleveland State Community College,,Cleveland,Tennessee,0,0,0,0,0,0,Bradley,35.131257,-84.875006
Columbia State Community College,,Columbia,Tennessee,0,0,0,0,0,0,Maury,35.615577,-87.038032
Dyersburg State Community College,,Dyersburg,Tennessee,0,0,0,0,0,0,Dyer,36.044447,-89.383644
Jackson State Community College,,Jackson,Tennessee,0,0,0,0,0,0,Madison,35.610222,-88.814011
Motlow State Community College,,Tullahoma,Tennessee,0,0,0,0,0,0,Coffee,35.35841,-86.22069
Nashville State Community College,https://catalog.nscc.edu/preview_program.php?catoid=21&poid=3884&hl=%22data+analytics%22&returnto=search,Nashville,Tennessee,0,0,0,0,0,0,Davidson,36.167028,-86.778441
Northeast State Community College,,Blountville,Tennessee,0,0,0,0,0,0,Sullivan,36.53562,-82.365558
Pellissippi State Community College,,Knoxville,Tennessee,0,0,0,0,0,0,Knox,35.9609,-83.9189
Roane State Community College,,Harriman,Tennessee,0,0,0,0,0,0,Roane,35.934785,-84.515526
Southwest Tennessee Community College,,Memphis,Tennessee,0,0,0,0,0,0,Shelby,35.0337,-89.9343
Volunteer State Community College,,Gallatin,Tennessee,0,0,0,0,0,0,Sumner,36.383438,-86.45116
Walters State Community College,,Morristown,Tennessee,0,0,0,0,0,0,Hamblen,36.195672,-83.275519
Central Community College,https://mycatalog.mccneb.edu/preview_program.php?catoid=19&poid=6179&hl=%22data+science%22&returnto=search,Grand Island,Nebraska,0,0,1,1,1,1,Hall,40.921858,-98.341062
Metropolitan Community College,,Omaha,Nebraska,0,0,0,0,0,0,Douglas,41.261,-95.9376
Mid-Plains Community College,,North Platte,Nebraska,0,0,0,0,0,0,Lincoln,41.132595,-100.774631
Nebraska College of Technical Agriculture,,Curtis,Nebraska,0,0,0,0,0,0,Frontier,40.613067,-100.510406
Nebraska Indian Community College,,Macy,Nebraska,0,0,0,0,0,0,Thurston,42.117739,-96.358865
Northeast Community College,,Norfolk,Nebraska,0,0,0,0,0,0,Madison,42.032914,-97.422898
Southeast Community College,,Lincoln,Nebraska,0,0,0,0,0,0,Lancaster,40.8169,-96.7103
Western Nebraska Community College,,Scottsbluff,Nebraska,0,0,0,0,0,0,Scotts Bluff,41.871975,-103.661914
College of Southern Nevada,https://catalog.csn.edu/preview_program.php?catoid=14&poid=8081&hl=%22data+science%22&returnto=search,Henderson,Nevada,0,0,0,0,0,0,Clark,35.992678,-114.951684
Truckee Meadows Community College,https://www.tmcc.edu/computer-science-technology/data-science,Reno,Nevada,0,1,1,1,1,1,Washoe,39.526812,-119.811275
Western Nevada College,,Carson City,Nevada,0,0,0,0,0,0,Carson City,39.150746,-119.745904
Alexandria Technical and Community College,,Alexandria,Minnesota,0,0,0,0,0,0,Douglas,45.881747,-95.381994
Anoka-Ramsey Community College,,Coon Rapids,Minnesota,0,0,0,0,0,0,Anoka,45.173483,-93.352053
Anoka Technical College,https://catalog.anokatech.edu/preview_program.php?catoid=3&poid=396,Anoka,Minnesota,1,1,0,0,1,0,Anoka,45.238537,-93.407822
Central Lakes College,,Brainerd,Minnesota,0,0,0,0,0,0,Crow Wing,46.357219,-94.201873
Century College,,White Bear Lake,Minnesota,0,0,0,0,0,0,Washington,45.0416,-92.982072
Dakota County Technical College,,Rosemount,Minnesota,0,0,0,0,0,0,Dakota,44.728919,-93.158844
Fond du Lac Tribal and Community College,,Cloquet,Minnesota,0,0,0,0,0,0,Carlton,46.726041,-92.45282
Hennepin Technical College,,Brooklyn Park,Minnesota,0,0,0,0,0,0,Hennepin,45.096857,-93.397688
Hibbing Community College,,Hibbing,Minnesota,0,0,0,0,0,0,Saint Louis,47.4156,-92.935582
Inver Hills Community College,https://www.inverhills.edu/degrees-programs/business/awards/data-analytics/,Inver Grove Heights,Minnesota,1,1,0,1,0,0,Dakota,44.841966,-93.034746
Itasca Community College,,Grand Rapids,Minnesota,0,0,0,0,0,0,Itasca,47.2378,-93.53
Lake Superior College,,Duluth,Minnesota,0,0,0,0,0,0,Saint Louis,47.094431,-91.846731
Mesabi Range College,,Virginia,Minnesota,0,0,0,0,0,0,Saint Louis,47.523333,-92.536389
Minneapolis Community and Technical College,,Minneapolis,Minnesota,0,0,0,0,0,0,Hennepin,44.983473,-93.268251
Minnesota State College Southeast,,Red Wing,Minnesota,0,0,0,0,0,0,Goodhue,44.552779,-92.548559
Minnesota State Community and Technical College,,Fergus Falls,Minnesota,0,0,0,0,0,0,Otter Tail,46.289723,-96.064338
Minnesota West Community and Technical College,,Worthington,Minnesota,0,0,0,0,0,0,Nobles,43.628626,-95.605907
Normandale Community College,https://www.normandale.edu/academics/degrees-certificates/data-analytics/index.html,Bloomington,Minnesota,1,1,0,1,1,0,Hennepin,44.8297,-93.331261
North Hennepin Community College,https://www.nhcc.edu/academics/earn-bachelors-degree/data-science,Brooklyn Park,Minnesota,0,0,1,0,1,1,Hennepin,45.10855,-93.373443
Northland Community & Technical College,,Thief River Falls,Minnesota,0,0,0,0,0,0,Pennington,48.110391,-96.167019
Pine Technical and Community College,,Pine City,Minnesota,0,0,0,0,0,0,Pine,45.832273,-92.982604
Rainy River Community College,,International Falls,Minnesota,0,0,0,0,0,0,Koochiching,48.583398,-93.40609
Red Lake Nation College,,Red Lake,Minnesota,0,0,0,0,0,0,Beltrami,47.880005,-95.00972
Ridgewater College,,Willmar,Minnesota,0,0,0,0,0,0,Kandiyohi,45.139264,-95.052315
Riverland Community College,https://www.riverland.edu/academics/programs/data-analytics-specialist-dip/description/,Austin,Minnesota,1,1,0,0,1,0,Mower,43.669538,-92.978374
Rochester Community and Technical College,https://www.rctc.edu/wp-content/uploads/2024/06/2024-2025-Academic-Catalog.pdf,Rochester,Minnesota,0,0,0,0,0,1,Olmsted,44.049572,-92.48962
St. Cloud Technical and Community College,,St. Cloud,Minnesota,0,0,0,0,0,0,Stearns,45.578964,-94.176308
Saint Paul College,https://www.saintpaul.edu/programs/data-science/,Saint Paul,Minnesota,0,0,1,1,1,1,Ramsey,44.969963,-93.083167
South Central College,,North Mankato,Minnesota,0,0,0,0,0,0,Nicollet,44.17445,-94.047218
Vermilion Community College,,Ely,Minnesota,0,0,0,0,0,0,Saint Louis,47.903435,-91.857042
White Earth Tribal and Community College,,Mahnomen,Minnesota,0,0,0,0,0,0,Mahnomen,47.336155,-95.885609
Lake Area Technical College,,Water Town,South Dakota,0,0,0,0,0,0,Codington,44.901114,-97.095302
Mitchell Technical Institute,https://mitchell.edu/academic-programs/computer-data-information-systems/,Mitchell,South Dakota,1,1,0,0,1,0,Davison,43.710921,-98.027026
Oglala Lakota College,,Kyle,South Dakota,0,0,0,0,0,0,Shannon,43.439437,-102.212419
Sisseton Wahpeton College,,Sisseton,South Dakota,0,0,0,0,0,0,Roberts,45.664413,-97.02322
Southeast Technical Institute,,Sioux Falls,South Dakota,0,0,0,0,0,0,Minnehaha,43.6017,-96.7051
Western Dakota Technical Institute,,Rapid City,South Dakota,0,0,0,0,0,0,Pennington,44.077041,-103.200259
Great Bay Community College,https://www.greatbay.edu/wp-content/uploads/2020/04/ProgramSheet_PracticalDataScience-Cert.pdf,Portsmouth,New Hampshire,0,1,1,1,0,1,Rockingham,43.066524,-70.780412
Lakes Region Community College,,Laconia,New Hampshire,0,0,0,0,0,0,Belknap,43.538713,-71.452907
Manchester Community College,https://mccnh.edu/program/applied-data-analytics-cert/,Manchester,New Hampshire,1,1,0,1,0,0,Hillsborough,42.992858,-71.463255
Nashua Community College,https://nashua.cleancatalog.io/data-science,Nashua,New Hampshire,1,1,0,1,1,0,Hillsborough,42.756395,-71.466684
NHTI – Concord's Community College,,Concord,New Hampshire,0,0,0,0,0,0,Merrimack,43.218525,-71.527734
River Valley Community College,,Claremont,New Hampshire,0,0,0,0,0,0,Sullivan,43.367942,-72.342186
White Mountains Community College,,Berlin,New Hampshire,0,0,0,0,0,0,Coos,44.48107,-71.189236
Central New Mexico Community College,,Albuquerque,New Mexico,0,0,0,0,0,0,Bernalillo,35.0936,-106.6423
Clovis Community College,,Clovis,New Mexico,0,0,0,0,0,0,Curry,34.402181,-103.167627
Doña Ana Community College,,Las Cruces,New Mexico,0,0,0,0,0,0,Dona Ana,32.321641,-106.746034
Luna Community College,,Las Vegas,New Mexico,0,0,0,0,0,0,San Miguel,35.594862,-105.227162
Mesalands Community College,,Tucumcari,New Mexico,0,0,0,0,0,0,Quay,35.168003,-103.717935
New Mexico Junior College,,Hobbs,New Mexico,0,0,0,0,0,0,Lea,32.72217,-103.137246
New Mexico State University Alamogordo,,Alamogordo,New Mexico,0,0,0,0,0,0,Otero,32.893186,-105.948544
Northern New Mexico College,https://nnmc.edu/academics/math-and-physical-science/data-science.html,Española,New Mexico,0,0,1,1,0,1,Rio Arriba,36.004057,-106.08444
San Juan College,,Farmington,New Mexico,0,0,0,0,0,0,San Juan,36.706514,-108.199531
Santa Fe Community College,,Santa Fe,New Mexico,0,0,0,0,0,0,Santa Fe,35.702472,-105.974818
Southwestern Indian Polytechnic Institute,,Albuquerque,New Mexico,0,0,0,0,0,0,Bernalillo,35.0936,-106.6423
New Mexico Military Institute,,Roswell,New Mexico,0,0,0,0,0,0,Chaves,33.388504,-104.525857
Atlantic Cape Community College,,Mays Landing,New Jersey,0,0,0,0,0,0,Atlantic,39.432011,-74.69619
Bergen Community College,,Paramus,New Jersey,0,0,0,0,0,0,Bergen,40.947683,-74.06724
Brookdale Community College,https://www.brookdalecc.edu/academic-institutes-and-departments/stem-institute-2/data-science/,Lincroft,New Jersey,0,0,1,0,1,1,Monmouth,40.33689,-74.120469
Camden County College,https://www.camdencc.edu/program/data-science/,Blackwood,New Jersey,0,0,1,0,1,1,Camden,39.774104,-75.058747
County College of Morris,https://www.ccm.edu/programs/data-science/,Randolph,New Jersey,0,1,1,0,1,1,Morris,40.845557,-74.572519
Essex County College,https://catalog.essex.edu/about-academic-divisions/math-engineering-technology-computer-science-division/computer-science-data-science-as/,Newark,New Jersey,0,0,1,0,1,1,Essex,40.7308,-74.1744
Hudson County Community College,https://catalog.hccc.edu/current/courses/dsc/dsc-217.html,Jersey City,New Jersey,0,0,0,0,0,1,Hudson,40.7164,-74.038
Mercer County Community College,https://catalog.mccc.edu/programs/CMPTR.DA.CERT,West Windsor,New Jersey,1,1,0,1,0,0,Mercer,40.297684,-74.614596
Middlesex College,https://middlesexcollege.edu/academics/computer-science/data-science-and-analytics/,Edison,New Jersey,0,0,1,1,1,1,Middlesex,40.517079,-74.397286
Ocean County College,https://www.ocean.edu/programs-and-courses/artificial-intelligence2-asai/,Toms River,New Jersey,0,1,1,1,1,0,Ocean,39.977083,-74.156508
Passaic County Community College,,Paterson,New Jersey,0,0,0,0,0,0,Passaic,40.914273,-74.167141
Raritan Valley Community College,,Branchburg,New Jersey,0,0,0,0,0,0,Somerset,40.609997,-74.688187
Rowan College at Burlington County,https://rcbc.edu/3plus1/data-analytics,Mount Laurel Township,New Jersey,0,0,0,0,0,0,Burlington,39.971076,-74.89334
Rowan College of South Jersey,https://www.rcsj.edu/Syllabi-site/Gloucester-site/Documents/CSC%20Courses/CSC%20106%20Introduction%20to%20Data%20Science.pdf#search=data%20science,Sewell,New Jersey,0,0,0,0,0,1,Gloucester,39.747345,-75.089852
Salem Community College,,Carneys Point Township,New Jersey,0,0,0,0,0,0,Salem,39.699208,-75.470327
Sussex County Community College,,Newton,New Jersey,0,0,0,0,0,0,Sussex,41.058275,-74.780191
Union College,https://www.ucc.edu/academics/degrees/engineering/,Cranford,New Jersey,0,0,1,0,1,1,Union,40.655357,-74.305685
Warren County Community College,,Washington,New Jersey,0,0,0,0,0,0,Warren,40.75818,-74.991361
Bismarck State College,https://bismarckstate.edu/academics/programs/Data%20Science/,Bismarck,North Dakota,0,1,1,0,1,0,Burleigh,46.823448,-100.774755
Cankdeska Cikana Community College,,Fort Totten,North Dakota,0,0,0,0,0,0,Benson,47.98,-98.9925
Dakota College at Bottineau,,Bottineau,North Dakota,0,0,0,0,0,0,Bottineau,48.845137,-100.432894
Lake Region State College,,Devils Lake,North Dakota,0,0,0,0,0,0,Ramsey,48.113162,-98.861588
North Dakota State College of Science,,Wahpeton,North Dakota,0,0,0,0,0,0,Richland,46.2651,-96.6133
Nueta Hidatsa Sahnish College,,New Town,North Dakota,0,0,0,0,0,0,Mountrail,47.977154,-102.485793
Sitting Bull College,,Fort Yates,North Dakota,0,0,0,0,0,0,Sioux,46.09054,-100.651611
Turtle Mountain Community College,https://tm.smartcatalogiq.com/en/current/undergraduate-and-graduate-catalog/courses/csci-computer-science-cis/200/csci-270/,Belcourt,North Dakota,0,0,0,0,0,1,Rolette,48.837862,-99.768754
United Tribes Technical College,,Bismarck,North Dakota,0,0,0,0,0,0,Burleigh,46.823448,-100.774755
Williston State College,,Williston,North Dakota,0,0,0,0,0,0,Williams,48.167924,-103.631699
Aiken Technical College,,Aiken,South Carolina,0,0,0,0,0,0,Aiken,33.553024,-81.719429
Central Carolina Technical College,,Sumter,South Carolina,0,0,0,0,0,0,Sumter,33.928199,-80.321008
Denmark Technical College,,Denmark,South Carolina,0,0,0,0,0,0,Bamberg,33.320925,-81.14072
Florence–Darlington Technical College,"https://www.fdtc.edu/academics/programs/web-applications-and-programming/#:~:text=Student%20Learning%20Outcomes,specified%20design%20and%20performance%20requirements.",Florence,South Carolina,1,1,0,1,0,0,Florence,34.18375,-79.772786
Greenville Technical College,https://catalog.gvltec.edu/school-business-computer-technology/computer-technology/computer-technology-aas/#recommendedprogramscheduletext,Greenville,South Carolina,1,1,1,1,1,1,Greenville,34.847165,-82.406049
Horry-Georgetown Technical College,,Conway,South Carolina,0,0,0,0,0,0,Horry,33.873066,-79.055712
Midlands Technical College,https://www.midlandstech.edu/programs-and-courses/science-information-technology-engineering-and-math-stem/ai-and-machine,Columbia,South Carolina,0,0,1,1,0,0,Lexington,34.072613,-81.179617
Midlands Technical College,https://www.midlandstech.edu/programs-and-courses/science-information-technology-engineering-and-math-stem/ai-and-machine,Columbia,South Carolina,0,0,1,1,0,0,Richland,34.0004,-81.033418
Orangeburg–Calhoun Technical College,,Orangeburg,South Carolina,0,0,0,0,0,0,Orangeburg,33.502545,-80.859282
Piedmont Technical College,,Greenwood,South Carolina,0,0,0,0,0,0,Greenwood,34.175802,-82.156211
Spartanburg Community College,https://catalog.sccsc.edu/preview_program.php?catoid=21&poid=2494&hl=%22data+analytics%22&returnto=search,Spartanburg,South Carolina,1,1,0,1,0,0,Spartanburg,34.935211,-81.965377
Technical College of the Lowcountry,,Beaufort,South Carolina,0,0,0,0,0,0,Beaufort,32.4335,-80.6728
Tri-County Technical College,https://www.tctc.edu/media/fy1il1za/data-science.pdf,Pendleton,South Carolina,0,0,0,0,0,0,Anderson,34.63694,-82.740623
Trident Technical College,,North Charleston,South Carolina,0,0,0,0,0,0,Charleston,32.851206,-79.976442
Williamsburg Technical College,,Kingstree,South Carolina,0,0,0,0,0,0,Williamsburg,33.687841,-79.783221
York Technical College,,Rock Hill,South Carolina,0,0,0,0,0,0,York,34.915068,-81.012904
Carl Albert State College,,Poteau,Oklahoma,0,0,0,0,0,0,Le Flore,35.060561,-94.609603
Connors State College,,Warner,Oklahoma,0,0,0,0,0,0,Muskogee,35.494546,-95.306434
Eastern Oklahoma State College,,Wilburton,Oklahoma,0,0,0,0,0,0,Latimer,34.912805,-95.338896
Murray State College,,Tishomingo,Oklahoma,0,0,0,0,0,0,Johnston,34.264286,-96.667502
Northeastern Oklahoma A&M College,,Miami,Oklahoma,0,0,0,0,0,0,Ottawa,36.876377,-94.87186
Northern Oklahoma College,,Tonkawa,Oklahoma,0,0,0,0,0,0,Kay,36.68062,-97.30634
Oklahoma City Community College,,Oklahoma City,Oklahoma,0,0,0,0,0,0,Oklahoma,35.473,-97.5177
Redlands Community College,,El Reno,Oklahoma,0,0,0,0,0,0,Canadian,35.533468,-97.959091
Rose State College,https://www.rose.edu/content/academics/academic-divisions/stem/data-science-analytics/,Midwest City,Oklahoma,0,0,1,0,1,1,Oklahoma,35.444605,-97.413777
Seminole State College,,Seminole,Oklahoma,0,0,0,0,0,0,Seminole,35.224444,-96.670278
Tulsa Community College,,Tulsa,Oklahoma,0,0,0,0,0,0,Tulsa,36.1504,-95.9953
Western Oklahoma State College,,Altus,Oklahoma,0,0,0,0,0,0,Jackson,34.648406,-99.320483
Belmont College,,Saint Clairsville,Ohio,0,0,0,0,0,0,Belmont,40.083439,-80.902285
Central Ohio Technical College,,Newark,Ohio,0,0,0,0,0,0,Licking,40.072429,-82.404565
Cincinnati State Technical and Community College,,Cincinnati,Ohio,0,0,0,0,0,0,Hamilton,39.1063,-84.5356
Clark State College,,Springfield,Ohio,0,0,0,0,0,0,Clark,39.924167,-83.808889
Columbus State Community College,https://explore.cscc.edu/programs/CSCI.DATAAN.AAS/computer-science-data-analytics-analysis-and-visualization-aas,Columbus,Ohio,1,1,0,1,1,1,Franklin,40.105155,-83.010069
Cuyahoga Community College,https://catalog.tri-c.edu/programs/data-analytics-post-degree-professional-certificate/#programsequencetext,Cleveland,Ohio,1,1,0,1,0,1,Cuyahoga,41.4918,-81.6757
Edison State Community College,,Piqua,Ohio,0,0,0,0,0,0,Miami,40.148621,-84.253053
Hocking College,,Nelsonville,Ohio,0,0,0,0,0,0,Athens,39.455635,-82.230883
Lakeland Community College,https://www.lakelandcc.edu/web/about/itcs/data-analytics,Kirtland,Ohio,1,1,0,1,1,0,Lake,41.637454,-81.365875
Lorain County Community College,https://www.lorainccc.edu/business-programs/data-analytics/,Elyria,Ohio,1,1,0,0,1,1,Lorain,41.372353,-82.105088
Marion Technical College,,Marion,Ohio,0,0,0,0,0,0,Marion,40.579857,-83.089069
North Central State College,,Mansfield,Ohio,0,0,0,0,0,0,Richland,40.7633,-82.5138
Northwest State Community College,,Archbold,Ohio,0,0,0,0,0,0,Fulton,41.533255,-84.304833
Owens Community College,,Perrysburg,Ohio,0,0,0,0,0,0,Wood,41.542926,-83.592727
Rio Grande Community College,,Rio Grande,Ohio,0,0,0,0,0,0,Gallia,38.879444,-82.380556
Sinclair Community College,https://www.sinclair.edu/program/params/programCode/DATA-S-AAS/,Dayton,Ohio,1,1,0,1,1,1,Montgomery,39.7578,-84.1777
Southern State Community College,,Hillsboro,Ohio,0,0,0,0,0,0,Highland,39.167877,-83.606406
Stark State College,https://www.starkstate.edu/academics/programs/computer-technology/data-analytics/,North Canton,Ohio,1,1,0,1,0,0,Stark,40.889919,-81.413464
Terra State Community College,,Fremont,Ohio,0,0,0,0,0,0,Sandusky,41.349792,-83.118095
University of Cincinnati Clermont College,,Batavia,Ohio,0,0,0,0,0,0,Clermont,39.095661,-84.145125
Washington State Community College,,Marietta,Ohio,0,0,0,0,0,0,Washington,39.428141,-81.464438
Zane State College,,Zanesville,Ohio,0,0,0,0,0,0,Muskingum,39.944265,-82.008898
Blue Mountain Community College,,Pendleton,Oregon,0,0,0,0,0,0,Umatilla,45.660535,-118.783104
Central Oregon Community College,,Bend,Oregon,0,0,0,0,0,0,Deschutes,44.092788,-121.293632
Chemeketa Community College,https://catalog.chemeketa.edu/preview_program.php?catoid=9&poid=1740&hl=%22data+analytics%22&returnto=search,Salem,Oregon,0,0,1,0,1,1,Marion,44.926039,-122.979692
Clackamas Community College,,Oregon City,Oregon,0,0,0,0,0,0,Clackamas,45.337718,-122.569991
Clatsop Community College,,Astoria,Oregon,0,0,0,0,0,0,Clatsop,46.155802,-123.79798
Columbia Gorge Community College,,The Dalles,Oregon,0,0,0,0,0,0,Wasco,45.599504,-121.190493
Klamath Community College,,Klamath Falls,Oregon,0,0,0,0,0,0,Klamath,42.229601,-121.786969
Lane Community College,,Eugene,Oregon,0,0,0,0,0,0,Lane,44.073677,-123.078757
Linn–Benton Community College,,Albany,Oregon,0,0,0,0,0,0,Linn,44.627722,-123.094409
Mt. Hood Community College,,Gresham,Oregon,0,0,0,0,0,0,Multnomah,45.515397,-122.420258
Oregon Coast Community College,,Newport,Oregon,0,0,0,0,0,0,Lincoln,44.648653,-124.050903
Portland Community College,,Portland,Oregon,0,0,0,0,0,0,Multnomah,45.498819,-122.690258
Rogue Community College,,Grants Pass,Oregon,0,0,0,0,0,0,Josephine,42.463758,-123.345727
Southwestern Oregon Community College,,Coos Bay,Oregon,0,0,0,0,0,0,Coos,43.362812,-124.233101
Tillamook Bay Community College,,Tillamook,Oregon,0,0,0,0,0,0,Tillamook,45.449185,-123.818851
Treasure Valley Community College,,Ontario,Oregon,0,0,0,0,0,0,Malheur,44.04156,-116.978268
Umpqua Community College,,Roseburg,Oregon,0,0,0,0,0,0,Douglas,43.222726,-123.366437
Alamance Community College,https://catalog.alamancecc.edu/preview_program.php?catoid=7&poid=935&hl=artificial+intelligence&returnto=search,Graham,North Carolina,1,1,0,0,1,1,Alamance,36.030967,-79.381384
Asheville–Buncombe Technical Community College,https://abtech.edu/program/information-technology-artificial-intelligence-aas,Ashville,North Carolina,1,1,0,1,1,0,Buncombe,35.570664,-82.555552
Beaufort County Community College,,Washington,North Carolina,0,0,0,0,0,0,Beaufort,35.588392,-77.140356
Bladen Community College,,Dublin,North Carolina,0,0,0,0,0,0,Bladen,34.656667,-78.726667
Blue Ridge Community and Technical College,https://www.blueridge.edu/programs-courses/information-technology-computer/artificial-intelligence-pathway/,Hendersonville,North Carolina,0,0,1,0,1,0,Henderson,35.319213,-82.499995
Brunswick Community College,https://brunswickcc.edu/program/artifical-intelligence-a24710/,Bolivia,North Carolina,1,1,0,0,1,0,Brunswick,34.025962,-78.16814
Caldwell Community College & Technical Institute,,Hudson,North Carolina,0,0,0,0,0,0,Caldwell,35.840295,-81.489747
Cape Fear Community College,,Wilmington,North Carolina,0,0,0,0,0,0,New Hanover,34.225304,-77.937856
Carteret Community College,,Morehead City,North Carolina,0,0,0,0,0,0,Carteret,34.72532,-76.753069
Catawba Valley Community College,,Hickory,North Carolina,0,0,0,0,0,0,Catawba,35.75757,-81.328858
Central Carolina Community College,,Sanford,North Carolina,0,0,0,0,0,0,Lee,35.464148,-79.176446
Central Piedmont Community College,https://www.cpcc.edu/programs/artificial-intelligence-technology,Charlotte,North Carolina,1,1,0,1,1,1,Mecklenburg,35.2269,-80.8433
Cleveland Community College,,Shelby,North Carolina,0,0,0,0,0,0,Cleveland,35.347075,-81.581573
Coastal Carolina Community College,,Jacksonville,North Carolina,0,0,0,0,0,0,Onslow,34.737456,-77.462815
College of The Albemarle,,Elizabeth City,North Carolina,0,0,0,0,0,0,Pasquotank,36.3019,-76.2236
Craven Community College,https://catalog.cravencc.edu/information-technology/certificate/information-technology-data-support-specialist,New Bern,North Carolina,1,1,0,0,0,0,Craven,35.101941,-77.031945
Davidson-Davie Community College,,Thomasville,North Carolina,0,0,0,0,0,0,Davidson,35.87128,-80.09128
Durham Technical Community College,,Durham,North Carolina,0,0,0,0,0,1,Durham,35.996725,-78.896613
Edgecombe Community College,,Tarboro,North Carolina,0,0,0,0,0,0,Edgecombe,35.898257,-77.542067
Fayetteville Technical Community College,,Fayetteville,North Carolina,0,0,0,0,0,0,Cumberland,35.05099,-78.842255
Forsyth Technical Community College,https://catalog.forsythtech.edu/2425/program/Information-Technology-Data-Reporting-and-Analytics-Data-Programming/data+science,Winston Salem,North Carolina,1,1,0,1,0,0,Forsyth,36.10237,-80.222798
Gaston College,,Dallas,North Carolina,0,0,0,0,0,0,Gaston,35.334853,-81.1862
Guilford Technical Community College,https://catalog.gtcc.edu/preview_program.php?catoid=13&poid=5883&hl=%22data+science%22&returnto=search,Jamestown,North Carolina,1,1,0,0,1,1,Guilford,35.998993,-79.929286
Halifax Community College,,Weldon,North Carolina,0,0,0,0,0,0,Halifax,36.420643,-77.60346
Haywood Community College,,Clyde,North Carolina,0,0,0,0,0,0,Haywood,35.559654,-82.921582
Isothermal Community College,,Spindale,North Carolina,0,0,0,0,0,0,Rutherford,35.360131,-81.925142
James Sprunt Community College,,Kenansville,North Carolina,0,0,0,0,0,0,Duplin,35.039621,-77.967743
Johnston Community College,https://catalog.jccc.edu/degreecertificates/datascience//data-analytics-certificate/,Smithfield,North Carolina,0,0,0,0,0,0,Johnston,35.50684,-78.347866
Lenoir Community College,,Kinston,North Carolina,0,0,0,0,0,0,Lenoir,35.278333,-77.585969
Martin Community College,,Williamston,North Carolina,0,0,0,0,0,0,Martin,35.660154,-77.048344
Mayland Community College,,Spruce Pine,North Carolina,0,0,0,0,0,0,Mitchell,35.905971,-82.070492
McDowell Technical Community College,,Marion,North Carolina,0,0,0,0,0,0,Mcdowell,35.681916,-82.017993
Mitchell Community College,https://mitchell.edu/academic-programs/computer-data-information-systems/,Statesville,North Carolina,1,1,0,0,1,0,Iredell,35.8381,-80.8842
Montgomery Community College,,Troy,North Carolina,0,0,0,0,0,0,Montgomery,35.377702,-79.909252
Nash Community College,,Rocky Mount,North Carolina,0,0,0,0,0,0,Nash,35.923784,-77.835022
Pamlico Community College,,Grantsboro,North Carolina,0,0,0,0,0,0,Pamlico,35.122186,-76.884387
Piedmont Community College,,Roxboro,North Carolina,0,0,0,0,0,0,Person,36.405902,-78.973698
Pitt Community College,https://catalog.pittcc.edu/preview_program.php?catoid=7&poid=2732&hl=%22data+reporting%22&returnto=search,Winterville,North Carolina,1,1,0,1,0,0,Pitt,35.533582,-77.39097
Randolph Community College,,Asheboro,North Carolina,0,0,0,0,0,0,Randolph,35.693496,-79.819678
Richmond Community College,,Hamlet,North Carolina,0,0,0,0,0,0,Richmond,34.889375,-79.702217
Roanoke–Chowan Community College,,Ahoskie,North Carolina,0,0,0,0,0,0,Hertford,36.295737,-76.996632
Robeson Community College,,Lumberton,North Carolina,0,0,0,0,0,0,Robeson,34.629301,-79.008309
Rockingham Community College,,Wentworth,North Carolina,0,0,0,0,0,0,Rockingham,36.4,-79.774722
Rowan–Cabarrus Community College,,Salisbury,North Carolina,0,0,0,0,0,0,Rowan,35.651498,-80.488945
Sampson Community College,,Clinton,North Carolina,0,0,0,0,0,0,Sampson,35.015143,-78.326007
Sandhills Community College,,Pinehurst,North Carolina,0,0,0,0,0,0,Moore,35.195278,-79.469722
South Piedmont Community College,https://catalog.spcc.edu/preview_program.php?catoid=4&poid=1617&hl=%22data+analytics%22&returnto=search,Monroe,North Carolina,1,1,0,1,0,0,Union,35.017775,-80.53723
Southeastern Community College,,Whiteville,North Carolina,0,0,0,0,0,0,Columbus,34.324142,-78.716048
Southwestern Community College,,Sylvia,North Carolina,0,0,0,0,0,0,Jackson,35.348568,-83.207169
Stanly Community College,,Albemarle,North Carolina,0,0,0,0,0,0,Stanly,35.357276,-80.204363
Surry Community College,,Dobson,North Carolina,0,0,0,0,0,0,Surry,36.369826,-80.710065
Tri-County Community College,,Murphy,North Carolina,0,0,0,0,0,0,Cherokee,35.079228,-84.101454
Vance–Granville Community College,,Henderson,North Carolina,0,0,0,0,0,0,Vance,36.330068,-78.398086
Wake Technical Community College,https://www.waketech.edu/programs-courses/credit/data-science/degrees-programs/a25590ds,Raleigh,North Carolina,0,0,1,0,1,1,Wake,35.772701,-78.632439
Wayne Community College,https://waynecc.smartcatalogiq.com/2024-2025/general-catalog-and-student-handbook/programs-of-study/certificate-diploma-and-associate-in-applied-science-degree-programs/artificial-intelligence-engineer-aas/,Goldsboro,North Carolina,1,1,0,1,1,0,Wayne,35.382585,-78.015813
Western Piedmont Community College,,Morganton,North Carolina,0,0,0,0,0,0,Burke,35.73458,-81.704216
Wilkes Community College,,Wilkesboro,North Carolina,0,0,0,0,0,0,Wilkes,36.135857,-81.157292
Wilson Community College,,Wilson,North Carolina,0,0,0,0,0,0,Wilson,35.727022,-77.922733
Bucks County Community College,https://www.bucks.edu/catalog/majors/stem/datascience/,Newtown,Pennsylvania,0,0,1,0,1,1,Bucks,40.245817,-74.94313
Butler County Community College,,Butler,Pennsylvania,0,0,0,0,0,0,Butler,40.862096,-79.902717
Community College of Allegheny County,,Pittsburgh,Pennsylvania,0,0,0,0,0,0,Allegheny,40.474536,-79.952524
Community College of Beaver County,,Monaca,Pennsylvania,0,0,0,0,0,0,Beaver,40.671847,-80.291743
Community College of Philadelphia,https://www.ccp.edu/college-catalog/degree-programs/proficiency-certificate/data-science-proficiency-certificate,Philadelphia,Pennsylvania,0,0,1,1,0,1,Philadelphia,40.1162,-75.0141
Delaware County Community College,,Media,Pennsylvania,0,0,0,0,0,0,Delaware,39.915562,-75.407226
Harrisburg Area Community College,,Harrisburg,Pennsylvania,0,0,0,0,0,0,Dauphin,40.261767,-76.883079
Lehigh Carbon Community College,,Schnecksville,Pennsylvania,0,0,0,0,0,0,Lehigh,40.681949,-75.623924
Luzerne County Community College,,Nanticoke,Pennsylvania,0,0,0,0,0,0,Luzerne,41.19634,-76.004419
Montgomery County Community College,,Blue Bell,Pennsylvania,0,0,0,0,0,0,Montgomery,40.15939,-75.279656
Northampton Community College,https://www.northampton.edu/education-and-training/programs/data-science.html,Bethlehem,Pennsylvania,0,1,1,1,1,1,Northampton,40.600167,-75.380507
Pennsylvania Highlands Community College,,Johnstown,Pennsylvania,0,0,0,0,0,0,Cambria,40.325957,-78.91408
Reading Area Community College,https://www.racc.edu/data,Reading,Pennsylvania,0,1,1,1,1,0,Berks,40.346621,-75.935132
Westmoreland County Community College,,Youngwood,Pennsylvania,0,0,0,0,0,0,Westmoreland,40.239482,-79.582291